{
"type": "FeatureCollection",
"name": "water_bodies",
"crs": { "type": "name", "properties": { "name": "urn:ogc:def:crs:OGC:1.3:CRS84" } },
"features": [
{ "type": "Feature", "properties": { "element": "relation", "id": 12675146, "natural": "water", "water": null, "type": "multipolygon" }, "geometry": { "type": "Polygon", "coordinates": [ [ [ 73.013697, 33.7050968 ], [ 73.0137074, 33.7050979 ], [ 73.0137195, 33.7051012 ], [ 73.0137618, 33.7051392 ], [ 73.0137738, 33.705145 ], [ 73.0137892, 33.7051484 ], [ 73.013809, 33.7051489 ], [ 73.0138261, 33.7051459 ], [ 73.0138472, 33.7051369 ], [ 73.0138607, 33.7051255 ], [ 73.0138711, 33.7051082 ], [ 73.0138791, 33.70508 ], [ 73.0138855, 33.7050664 ], [ 73.0138965, 33.7050588 ], [ 73.0139448, 33.7050499 ], [ 73.0139589, 33.7050435 ], [ 73.0139619, 33.7050284 ], [ 73.0139492, 33.7049961 ], [ 73.0139498, 33.7049855 ], [ 73.0139579, 33.704971 ], [ 73.0140028, 33.7049431 ], [ 73.0140115, 33.7049219 ], [ 73.0140095, 33.7048965 ], [ 73.0139921, 33.7048675 ], [ 73.0139676, 33.704851 ], [ 73.0139435, 33.7048435 ], [ 73.0139247, 33.7048393 ], [ 73.0139113, 33.7048349 ], [ 73.0139012, 33.7048262 ], [ 73.0138952, 33.7047939 ], [ 73.0138918, 33.7047894 ], [ 73.0138855, 33.7047863 ], [ 73.0138774, 33.7047861 ], [ 73.0138449, 33.7047944 ], [ 73.0138365, 33.7047941 ], [ 73.0138275, 33.7047908 ], [ 73.013805, 33.7047721 ], [ 73.0137822, 33.7047565 ], [ 73.0137587, 33.7047464 ], [ 73.0137259, 33.7047395 ], [ 73.0136964, 33.7047437 ], [ 73.0136766, 33.704754 ], [ 73.0136548, 33.7047768 ], [ 73.0136454, 33.7047969 ], [ 73.0136357, 33.7048204 ], [ 73.0136246, 33.7048271 ], [ 73.0135757, 33.704834 ], [ 73.0135706, 33.7048396 ], [ 73.013571, 33.704846 ], [ 73.013581, 33.7048767 ], [ 73.013581, 33.7048912 ], [ 73.0135757, 33.7049029 ], [ 73.0135354, 33.7049369 ], [ 73.013516, 33.7049654 ], [ 73.0135133, 33.7049922 ], [ 73.0135294, 33.7050195 ], [ 73.0135623, 33.7050357 ], [ 73.0135971, 33.7050415 ], [ 73.0136162, 33.7050485 ], [ 73.0136233, 33.7050563 ], [ 73.0136367, 33.705097 ], [ 73.0136431, 33.7051029 ], [ 73.0136511, 33.7051049 ], [ 73.013697, 33.7050968 ] ], [ [ 73.0136126, 33.7049523 ], [ 73.0136176, 33.7049336 ], [ 73.013636, 33.7049127 ], [ 73.0136478, 33.7049015 ], [ 73.0136481, 33.7048739 ], [ 73.013691, 33.7048633 ], [ 73.0136952, 33.7048469 ], [ 73.0137071, 33.7048271 ], [ 73.0137252, 33.7048181 ], [ 73.013752, 33.7048126 ], [ 73.0137755, 33.7048142 ], [ 73.013807, 33.7048371 ], [ 73.0138566, 33.7048377 ], [ 73.0138647, 33.7048717 ], [ 73.0139022, 33.7048817 ], [ 73.013919, 33.7048934 ], [ 73.013927, 33.7049063 ], [ 73.0139237, 33.7049375 ], [ 73.0139049, 33.7049687 ], [ 73.0138955, 33.7050061 ], [ 73.0138566, 33.7050162 ], [ 73.0138486, 33.7050368 ], [ 73.0138419, 33.7050502 ], [ 73.0138244, 33.7050636 ], [ 73.0137996, 33.7050703 ], [ 73.0137715, 33.705068 ], [ 73.0137289, 33.7050421 ], [ 73.01369, 33.7050443 ], [ 73.0136739, 33.7050142 ], [ 73.01364, 33.7050028 ], [ 73.0136229, 33.7049925 ], [ 73.0136142, 33.7049779 ], [ 73.0136126, 33.7049523 ] ] ] } },
{ "type": "Feature", "properties": { "element": "relation", "id": 12726106, "natural": "water", "water": null, "type": "multipolygon" }, "geometry": { "type": "Polygon", "coordinates": [ [ [ 73.0155853, 33.6975963 ], [ 73.0155862, 33.6975953 ], [ 73.0155867, 33.6975941 ], [ 73.0155874, 33.6975924 ], [ 73.015588, 33.6975896 ], [ 73.0156021, 33.6975118 ], [ 73.0156166, 33.6974427 ], [ 73.0156325, 33.6973797 ], [ 73.0156465, 33.6973403 ], [ 73.0156493, 33.6973295 ], [ 73.0156492, 33.6973258 ], [ 73.0156489, 33.6973228 ], [ 73.015648, 33.6973202 ], [ 73.0156465, 33.6973178 ], [ 73.0156437, 33.6973151 ], [ 73.0156406, 33.6973121 ], [ 73.0156357, 33.6973091 ], [ 73.0156316, 33.6973074 ], [ 73.0156252, 33.6973055 ], [ 73.0156118, 33.6973035 ], [ 73.0155175, 33.697296 ], [ 73.0154339, 33.6972879 ], [ 73.0153754, 33.6972831 ], [ 73.0153499, 33.697281 ], [ 73.0153426, 33.6972813 ], [ 73.0153396, 33.6972824 ], [ 73.0153389, 33.6972833 ], [ 73.0153386, 33.6972846 ], [ 73.0153385, 33.6972857 ], [ 73.0153394, 33.6972873 ], [ 73.0153822, 33.6973236 ], [ 73.0154224, 33.6973618 ], [ 73.0154514, 33.6973928 ], [ 73.0155768, 33.6975899 ], [ 73.0155801, 33.6975945 ], [ 73.0155822, 33.697596 ], [ 73.0155838, 33.6975963 ], [ 73.0155853, 33.6975963 ] ], [ [ 73.0153886, 33.6973017 ], [ 73.0153903, 33.6973016 ], [ 73.0153928, 33.6973017 ], [ 73.0156207, 33.6973236 ], [ 73.0156229, 33.6973241 ], [ 73.0156251, 33.6973248 ], [ 73.0156263, 33.6973256 ], [ 73.0156273, 33.6973271 ], [ 73.0156278, 33.6973292 ], [ 73.0156284, 33.697333 ], [ 73.0156281, 33.6973388 ], [ 73.0156271, 33.6973452 ], [ 73.0156125, 33.6973849 ], [ 73.0156048, 33.6974075 ], [ 73.0155997, 33.6974343 ], [ 73.0155781, 33.6975408 ], [ 73.0155761, 33.6975444 ], [ 73.0155748, 33.6975449 ], [ 73.0155737, 33.6975451 ], [ 73.0155722, 33.6975447 ], [ 73.0155702, 33.6975427 ], [ 73.0155678, 33.6975397 ], [ 73.015559, 33.6975263 ], [ 73.015527, 33.6974697 ], [ 73.0154981, 33.6974245 ], [ 73.0154777, 33.6973963 ], [ 73.0154328, 33.6973454 ], [ 73.015412, 33.6973267 ], [ 73.015386, 33.6973058 ], [ 73.0153858, 33.6973045 ], [ 73.015386, 33.6973035 ], [ 73.0153872, 33.6973022 ], [ 73.0153886, 33.6973017 ] ] ] } },
{ "type": "Feature", "properties": { "element": "way", "id": 320393000, "natural": "water", "water": "lake", "type": null }, "geometry": { "type": "Polygon", "coordinates": [ [ [ 73.0240851, 33.7056096 ], [ 73.0240623, 33.705607 ], [ 73.0240219, 33.705592 ], [ 73.0239415, 33.7055384 ], [ 73.0239012, 33.7055362 ], [ 73.0238261, 33.7055429 ], [ 73.0237591, 33.7055384 ], [ 73.0237457, 33.7055027 ], [ 73.0237465, 33.7054697 ], [ 73.0237644, 33.7054469 ], [ 73.0238208, 33.7054291 ], [ 73.023866, 33.7054242 ], [ 73.0238815, 33.7054177 ], [ 73.0238912, 33.7053952 ], [ 73.0238822, 33.7053691 ], [ 73.0238503, 33.7053287 ], [ 73.0238529, 33.7052506 ], [ 73.02392, 33.7051925 ], [ 73.0240005, 33.7052059 ], [ 73.0240326, 33.7052506 ], [ 73.0240273, 33.7053487 ], [ 73.023979, 33.7054291 ], [ 73.0240219, 33.7054737 ], [ 73.0241024, 33.7055183 ], [ 73.0241373, 33.7055518 ], [ 73.0241306, 33.7055797 ], [ 73.0241172, 33.7056005 ], [ 73.0240851, 33.7056096 ] ] ] } },
{ "type": "Feature", "properties": { "element": "way", "id": 320393003, "natural": "water", "water": "lake", "type": null }, "geometry": { "type": "Polygon", "coordinates": [ [ [ 73.0234471, 33.7053536 ], [ 73.0234069, 33.7053156 ], [ 73.0234069, 33.7052666 ], [ 73.0234311, 33.7052152 ], [ 73.0234981, 33.7052264 ], [ 73.0235088, 33.7052933 ], [ 73.0234981, 33.7053536 ], [ 73.0234471, 33.7053536 ] ] ] } },
{ "type": "Feature", "properties": { "element": "way", "id": 469765602, "natural": "water", "water": null, "type": null }, "geometry": { "type": "Polygon", "coordinates": [ [ [ 73.0129391, 33.703089 ], [ 73.0130357, 33.7030672 ], [ 73.0131323, 33.703089 ], [ 73.013242, 33.7030955 ], [ 73.0132943, 33.7031259 ], [ 73.0133517, 33.7031368 ], [ 73.0134287, 33.7031298 ], [ 73.0134687, 33.7030898 ], [ 73.013501, 33.70305 ], [ 73.0135241, 33.7030325 ], [ 73.0135476, 33.7029738 ], [ 73.0135006, 33.7028999 ], [ 73.0134458, 33.7028521 ], [ 73.0133779, 33.7028239 ], [ 73.0133256, 33.7027891 ], [ 73.0132577, 33.7027369 ], [ 73.0132473, 33.7026826 ], [ 73.0132316, 33.7026153 ], [ 73.0132316, 33.7025522 ], [ 73.0132185, 33.7025088 ], [ 73.0131637, 33.7024632 ], [ 73.0131115, 33.702424 ], [ 73.0130357, 33.7024284 ], [ 73.0129809, 33.7024566 ], [ 73.012926, 33.7025131 ], [ 73.0128868, 33.702587 ], [ 73.0128581, 33.7026696 ], [ 73.0128085, 33.7027413 ], [ 73.0127824, 33.7028021 ], [ 73.0127171, 33.7028456 ], [ 73.0126596, 33.7029021 ], [ 73.0126361, 33.7029542 ], [ 73.0126413, 33.7030368 ], [ 73.0126622, 33.7030824 ], [ 73.012704, 33.7031085 ], [ 73.0127902, 33.7031194 ], [ 73.0129391, 33.703089 ] ] ] } },
{ "type": "Feature", "properties": { "element": "way", "id": 472387384, "natural": "water", "water": null, "type": null }, "geometry": { "type": "Polygon", "coordinates": [ [ [ 73.0361137, 33.7004563 ], [ 73.0360932, 33.7004787 ], [ 73.0360825, 33.7005054 ], [ 73.0360827, 33.7005335 ], [ 73.0360939, 33.70056 ], [ 73.0361147, 33.7005821 ], [ 73.0361434, 33.7005976 ], [ 73.0361765, 33.7006044 ], [ 73.0362105, 33.7006019 ], [ 73.0362416, 33.7005903 ], [ 73.0362665, 33.7005709 ], [ 73.0362824, 33.7005457 ], [ 73.0362876, 33.7005177 ], [ 73.0362815, 33.7004897 ], [ 73.0362648, 33.700465 ], [ 73.0362393, 33.7004461 ], [ 73.0362081, 33.7004353 ], [ 73.0361744, 33.7004334 ], [ 73.0361417, 33.7004406 ], [ 73.0361137, 33.7004563 ] ] ] } },
{ "type": "Feature", "properties": { "element": "way", "id": 473069948, "natural": "water", "water": null, "type": null }, "geometry": { "type": "Polygon", "coordinates": [ [ [ 73.0110363, 33.7039657 ], [ 73.0110637, 33.7039452 ], [ 73.0110916, 33.7039278 ], [ 73.0111183, 33.7039102 ], [ 73.0111329, 33.7038797 ], [ 73.0111541, 33.7036897 ], [ 73.0111373, 33.70355 ], [ 73.0111961, 33.7035203 ], [ 73.0112074, 33.7035095 ], [ 73.011204, 33.7034891 ], [ 73.0111842, 33.7034733 ], [ 73.0111503, 33.703462 ], [ 73.0111037, 33.7034522 ], [ 73.0110715, 33.7034395 ], [ 73.0110571, 33.7034008 ], [ 73.0110602, 33.7033552 ], [ 73.0110749, 33.7032916 ], [ 73.0111029, 33.7032176 ], [ 73.0111092, 33.703187 ], [ 73.0110971, 33.7031651 ], [ 73.0110536, 33.703139 ], [ 73.0109832, 33.7031045 ], [ 73.010927, 33.7030725 ], [ 73.010876, 33.7030682 ], [ 73.0108545, 33.7030726 ], [ 73.0108367, 33.7030805 ], [ 73.0108197, 33.7031012 ], [ 73.010799, 33.7031279 ], [ 73.0107864, 33.7031705 ], [ 73.0107365, 33.7032799 ], [ 73.0106814, 33.7033475 ], [ 73.0106217, 33.7034429 ], [ 73.0105433, 33.7035108 ], [ 73.0105298, 33.7035625 ], [ 73.010533, 33.7036551 ], [ 73.0105781, 33.7037097 ], [ 73.0106471, 33.7037602 ], [ 73.0107584, 33.7038236 ], [ 73.0108443, 33.70387 ], [ 73.0108658, 33.7038758 ], [ 73.0108901, 33.7038836 ], [ 73.0109235, 33.7038971 ], [ 73.0109443, 33.7039131 ], [ 73.0109639, 33.7039187 ], [ 73.0109639, 33.7039379 ], [ 73.0109754, 33.7039495 ], [ 73.0109958, 33.7039563 ], [ 73.0110134, 33.7039653 ], [ 73.0110363, 33.7039657 ] ] ] } },
{ "type": "Feature", "properties": { "element": "way", "id": 547345440, "natural": "water", "water": null, "type": null }, "geometry": { "type": "Polygon", "coordinates": [ [ [ 73.0774202, 33.6942676 ], [ 73.0774205, 33.6942801 ], [ 73.0774258, 33.6942919 ], [ 73.0774355, 33.6943014 ], [ 73.0774473, 33.6943072 ], [ 73.0774607, 33.6943097 ], [ 73.0774744, 33.6943087 ], [ 73.077487, 33.6943041 ], [ 73.0774973, 33.6942965 ], [ 73.0775043, 33.6942867 ], [ 73.0775073, 33.6942755 ], [ 73.0775059, 33.6942641 ], [ 73.0775004, 33.6942537 ], [ 73.0774903, 33.6942444 ], [ 73.0774769, 33.6942386 ], [ 73.077462, 33.6942369 ], [ 73.0774473, 33.6942394 ], [ 73.0774345, 33.694246 ], [ 73.0774251, 33.6942558 ], [ 73.0774202, 33.6942676 ] ] ] } },
{ "type": "Feature", "properties": { "element": "way", "id": 549369064, "natural": "water", "water": null, "type": null }, "geometry": { "type": "Polygon", "coordinates": [ [ [ 73.0621744, 33.7309431 ], [ 73.0622999, 33.7310083 ], [ 73.0621008, 33.7312731 ], [ 73.0619753, 33.7312079 ], [ 73.0621744, 33.7309431 ] ] ] } },
{ "type": "Feature", "properties": { "element": "way", "id": 549369065, "natural": "water", "water": null, "type": null }, "geometry": { "type": "Polygon", "coordinates": [ [ [ 73.0614446, 33.7305341 ], [ 73.0615663, 33.7305945 ], [ 73.0613573, 33.7308857 ], [ 73.0612357, 33.7308254 ], [ 73.0614446, 33.7305341 ] ] ] } },
{ "type": "Feature", "properties": { "element": "way", "id": 549374469, "natural": "water", "water": null, "type": null }, "geometry": { "type": "Polygon", "coordinates": [ [ [ 73.0175871, 33.6976563 ], [ 73.0176193, 33.6976619 ], [ 73.0176327, 33.6976507 ], [ 73.0176541, 33.6976184 ], [ 73.0176675, 33.6976072 ], [ 73.0176944, 33.6976027 ], [ 73.0177212, 33.6976061 ], [ 73.0177587, 33.6976284 ], [ 73.0177802, 33.6976496 ], [ 73.0177762, 33.6976686 ], [ 73.0177628, 33.6976931 ], [ 73.0177413, 33.6977099 ], [ 73.0177306, 33.6977333 ], [ 73.0177373, 33.6977601 ], [ 73.0177641, 33.6978069 ], [ 73.0177909, 33.6978371 ], [ 73.0177963, 33.6978761 ], [ 73.0177909, 33.6979085 ], [ 73.0178177, 33.6979431 ], [ 73.0178499, 33.6979654 ], [ 73.0178955, 33.6979821 ], [ 73.0179264, 33.6980078 ], [ 73.0179264, 33.6980479 ], [ 73.0179103, 33.6980825 ], [ 73.0178861, 33.6981004 ], [ 73.017854, 33.6981115 ], [ 73.017811, 33.6981093 ], [ 73.0177802, 33.6980948 ], [ 73.0177574, 33.6980647 ], [ 73.017752, 33.6980357 ], [ 73.0177279, 33.69802 ], [ 73.0177037, 33.698 ], [ 73.0176877, 33.6979776 ], [ 73.0176582, 33.6979765 ], [ 73.0176206, 33.6979765 ], [ 73.0175777, 33.6979754 ], [ 73.0175455, 33.6979542 ], [ 73.0175147, 33.6979274 ], [ 73.0174919, 33.6979007 ], [ 73.0174771, 33.697865 ], [ 73.0174771, 33.6978315 ], [ 73.0174959, 33.6977891 ], [ 73.0175307, 33.6977545 ], [ 73.0175629, 33.6977221 ], [ 73.0175656, 33.6977071 ], [ 73.0175482, 33.6976882 ], [ 73.0175187, 33.6976848 ], [ 73.0174919, 33.6976898 ], [ 73.017465, 33.6977043 ], [ 73.0174214, 33.6977322 ], [ 73.0173879, 33.6977423 ], [ 73.017349, 33.6977428 ], [ 73.0173195, 33.6977266 ], [ 73.0173041, 33.6977121 ], [ 73.0172907, 33.6976921 ], [ 73.017286, 33.6976764 ], [ 73.0172853, 33.697658 ], [ 73.0172961, 33.6976368 ], [ 73.0173075, 33.6976206 ], [ 73.0173309, 33.6976067 ], [ 73.017349, 33.6976022 ], [ 73.0173785, 33.6975955 ], [ 73.017396, 33.6975866 ], [ 73.0174181, 33.6975693 ], [ 73.0174201, 33.697547 ], [ 73.0174228, 33.6975247 ], [ 73.0174308, 33.6975068 ], [ 73.0174483, 33.6974873 ], [ 73.017461, 33.6974829 ], [ 73.0174905, 33.6974829 ], [ 73.01752, 33.6974879 ], [ 73.0175415, 33.6974996 ], [ 73.0175616, 33.6975308 ], [ 73.0175649, 33.6975543 ], [ 73.0175596, 33.6975777 ], [ 73.0175375, 33.6975939 ], [ 73.0175199, 33.6976112 ], [ 73.0175131, 33.6976276 ], [ 73.0175261, 33.6976431 ], [ 73.0175418, 33.6976576 ], [ 73.0175644, 33.6976632 ], [ 73.0175871, 33.6976563 ] ] ] } },
{ "type": "Feature", "properties": { "element": "way", "id": 549375801, "natural": "water", "water": null, "type": null }, "geometry": { "type": "Polygon", "coordinates": [ [ [ 73.0165209, 33.6975122 ], [ 73.0165209, 33.697549 ], [ 73.0165035, 33.6975769 ], [ 73.0164713, 33.6976026 ], [ 73.0164364, 33.697616 ], [ 73.0163988, 33.6976115 ], [ 73.0163693, 33.6976048 ], [ 73.0163532, 33.6976093 ], [ 73.0163372, 33.6976171 ], [ 73.0163331, 33.6976316 ], [ 73.0163398, 33.6976483 ], [ 73.016371, 33.697666 ], [ 73.0163771, 33.6976821 ], [ 73.0163692, 33.6976948 ], [ 73.0163444, 33.6977056 ], [ 73.0163264, 33.6977088 ], [ 73.0163044, 33.6977084 ], [ 73.0162908, 33.6977164 ], [ 73.0162779, 33.697729 ], [ 73.0162739, 33.697744 ], [ 73.0162711, 33.6977605 ], [ 73.0162734, 33.6977731 ], [ 73.0162829, 33.6977933 ], [ 73.0162891, 33.6978125 ], [ 73.0162846, 33.6978308 ], [ 73.01627, 33.6978543 ], [ 73.0162564, 33.6978669 ], [ 73.0162339, 33.6978777 ], [ 73.01619, 33.6978895 ], [ 73.0161491, 33.6978934 ], [ 73.0161069, 33.6978923 ], [ 73.0160727, 33.6978879 ], [ 73.0160392, 33.6978806 ], [ 73.016015, 33.6978622 ], [ 73.0159855, 33.6978382 ], [ 73.0159667, 33.697822 ], [ 73.0159493, 33.6978008 ], [ 73.0159413, 33.6977819 ], [ 73.0159399, 33.6977562 ], [ 73.0159403, 33.6977187 ], [ 73.0159403, 33.6976852 ], [ 73.0159483, 33.6976595 ], [ 73.0159698, 33.6976238 ], [ 73.0159859, 33.6976004 ], [ 73.01601, 33.6975792 ], [ 73.0160422, 33.6975647 ], [ 73.0160744, 33.6975636 ], [ 73.0161066, 33.6975647 ], [ 73.0161347, 33.6975636 ], [ 73.0161575, 33.6975524 ], [ 73.0161723, 33.6975301 ], [ 73.0161797, 33.69751 ], [ 73.016179, 33.6974933 ], [ 73.0161629, 33.6974682 ], [ 73.0161535, 33.6974481 ], [ 73.0161522, 33.697433 ], [ 73.0161589, 33.6974118 ], [ 73.0161763, 33.6973901 ], [ 73.0161978, 33.69738 ], [ 73.0162273, 33.6973761 ], [ 73.0162595, 33.6973884 ], [ 73.0162916, 33.6974135 ], [ 73.0163104, 33.6974286 ], [ 73.0163406, 33.697433 ], [ 73.0163614, 33.6974224 ], [ 73.0163748, 33.697404 ], [ 73.0163942, 33.6973923 ], [ 73.0164264, 33.6973862 ], [ 73.0164553, 33.6973957 ], [ 73.0164848, 33.6974196 ], [ 73.0165062, 33.6974548 ], [ 73.016519, 33.6974849 ], [ 73.0165209, 33.6975122 ] ] ] } },
{ "type": "Feature", "properties": { "element": "way", "id": 549377999, "natural": "water", "water": null, "type": null }, "geometry": { "type": "Polygon", "coordinates": [ [ [ 73.0130502, 33.6995055 ], [ 73.0130805, 33.6994737 ], [ 73.0130948, 33.6994405 ], [ 73.0130916, 33.69941 ], [ 73.0130941, 33.6993869 ], [ 73.0130979, 33.6993703 ], [ 73.0131131, 33.6993617 ], [ 73.0131359, 33.6993506 ], [ 73.0131586, 33.6993522 ], [ 73.0131928, 33.6993648 ], [ 73.0132231, 33.6993743 ], [ 73.0132497, 33.6993806 ], [ 73.0132686, 33.6993743 ], [ 73.0132895, 33.6993577 ], [ 73.0133009, 33.6993411 ], [ 73.013316, 33.6993364 ], [ 73.0133426, 33.6993396 ], [ 73.0133663, 33.6993545 ], [ 73.0134033, 33.6994058 ], [ 73.0134147, 33.6994429 ], [ 73.0134156, 33.6994745 ], [ 73.013408, 33.6995021 ], [ 73.01339, 33.6995321 ], [ 73.0133729, 33.6995471 ], [ 73.0133426, 33.6995715 ], [ 73.0133255, 33.6995857 ], [ 73.0133123, 33.6995857 ], [ 73.0132933, 33.6995912 ], [ 73.0132819, 33.6996078 ], [ 73.0132421, 33.6996709 ], [ 73.0132098, 33.6997041 ], [ 73.0131757, 33.699734 ], [ 73.0131359, 33.6997814 ], [ 73.0131169, 33.6997837 ], [ 73.0130904, 33.699805 ], [ 73.0130572, 33.6998121 ], [ 73.0130372, 33.6998098 ], [ 73.0130183, 33.6997987 ], [ 73.0130069, 33.6997814 ], [ 73.0129946, 33.6997254 ], [ 73.0129832, 33.699678 ], [ 73.0129756, 33.6996346 ], [ 73.0129747, 33.6995968 ], [ 73.0129832, 33.6995652 ], [ 73.0130088, 33.6995329 ], [ 73.0130502, 33.6995055 ] ] ] } },
{ "type": "Feature", "properties": { "element": "way", "id": 549383880, "natural": "water", "water": null, "type": null }, "geometry": { "type": "Polygon", "coordinates": [ [ [ 73.0195618, 33.706735 ], [ 73.0195541, 33.7067447 ], [ 73.0195508, 33.706756 ], [ 73.0195522, 33.7067676 ], [ 73.0195582, 33.706778 ], [ 73.0195673, 33.7067858 ], [ 73.0195789, 33.7067907 ], [ 73.0195918, 33.7067924 ], [ 73.0196046, 33.7067907 ], [ 73.0196162, 33.7067856 ], [ 73.0196252, 33.7067778 ], [ 73.0196309, 33.706768 ], [ 73.0196325, 33.7067573 ], [ 73.01963, 33.7067466 ], [ 73.0196236, 33.7067372 ], [ 73.0196132, 33.7067295 ], [ 73.0196003, 33.7067251 ], [ 73.0195863, 33.7067246 ], [ 73.019573, 33.7067281 ], [ 73.0195618, 33.706735 ] ] ] } },
{ "type": "Feature", "properties": { "element": "way", "id": 549411577, "natural": "water", "water": null, "type": null }, "geometry": { "type": "Polygon", "coordinates": [ [ [ 73.0167784, 33.7059496 ], [ 73.0167883, 33.7059605 ], [ 73.016802, 33.7059681 ], [ 73.0168178, 33.7059717 ], [ 73.0168346, 33.7059708 ], [ 73.0168502, 33.7059654 ], [ 73.0168627, 33.705956 ], [ 73.0168708, 33.7059437 ], [ 73.0168737, 33.7059299 ], [ 73.0168709, 33.705916 ], [ 73.0168628, 33.7059038 ], [ 73.0168502, 33.7058943 ], [ 73.0168347, 33.7058889 ], [ 73.0168179, 33.705888 ], [ 73.016802, 33.7058916 ], [ 73.0167884, 33.7058992 ], [ 73.0167784, 33.70591 ], [ 73.0167731, 33.705923 ], [ 73.0167731, 33.7059367 ], [ 73.0167784, 33.7059496 ] ] ] } },
{ "type": "Feature", "properties": { "element": "way", "id": 549413822, "natural": "water", "water": null, "type": null }, "geometry": { "type": "Polygon", "coordinates": [ [ [ 73.0196644, 33.7068053 ], [ 73.0196706, 33.7068109 ], [ 73.0196869, 33.7068118 ], [ 73.0197039, 33.7068071 ], [ 73.0197174, 33.7068001 ], [ 73.0197366, 33.7067856 ], [ 73.019749, 33.706772 ], [ 73.0197518, 33.7067598 ], [ 73.0197495, 33.7067508 ], [ 73.0197456, 33.7067429 ], [ 73.0197315, 33.7067377 ], [ 73.0197174, 33.7067358 ], [ 73.0196993, 33.7067396 ], [ 73.0196813, 33.7067452 ], [ 73.0196689, 33.7067621 ], [ 73.0196587, 33.7067893 ], [ 73.0196644, 33.7068053 ] ] ] } },
{ "type": "Feature", "properties": { "element": "way", "id": 549414706, "natural": "water", "water": null, "type": null }, "geometry": { "type": "Polygon", "coordinates": [ [ [ 73.0172069, 33.7071335 ], [ 73.0172212, 33.7071312 ], [ 73.0172324, 33.7071229 ], [ 73.0172395, 33.7071156 ], [ 73.0172531, 33.7071103 ], [ 73.0172499, 33.7071199 ], [ 73.0172439, 33.7071325 ], [ 73.0172439, 33.7071431 ], [ 73.0172451, 33.7071528 ], [ 73.0172515, 33.7071634 ], [ 73.0172587, 33.7071713 ], [ 73.0172726, 33.7071773 ], [ 73.0172922, 33.7071766 ], [ 73.0172806, 33.7071886 ], [ 73.017281, 33.7071932 ], [ 73.017295, 33.7072015 ], [ 73.0173229, 33.7072151 ], [ 73.0173157, 33.7072204 ], [ 73.0173029, 33.7072224 ], [ 73.0173005, 33.7072317 ], [ 73.0172982, 33.707242 ], [ 73.0173065, 33.7072519 ], [ 73.0173241, 33.7072652 ], [ 73.0173221, 33.7072698 ], [ 73.0173141, 33.7072718 ], [ 73.0173045, 33.7072649 ], [ 73.017295, 33.7072672 ], [ 73.0172886, 33.7072712 ], [ 73.0172806, 33.7072788 ], [ 73.017279, 33.7072894 ], [ 73.0172639, 33.7072695 ], [ 73.0172535, 33.7072536 ], [ 73.0172439, 33.707238 ], [ 73.0172296, 33.7072284 ], [ 73.0172132, 33.7072217 ], [ 73.0172069, 33.7072294 ], [ 73.0171957, 33.707245 ], [ 73.0171929, 33.7072513 ], [ 73.0171893, 33.7072324 ], [ 73.0171865, 33.7072164 ], [ 73.0171805, 33.7072085 ], [ 73.0171702, 33.7072018 ], [ 73.0171542, 33.7072022 ], [ 73.0171431, 33.7072121 ], [ 73.0171319, 33.7072161 ], [ 73.0171215, 33.7072154 ], [ 73.0171151, 33.7072058 ], [ 73.0171179, 33.7071952 ], [ 73.0171195, 33.7071809 ], [ 73.0171124, 33.7071697 ], [ 73.0170948, 33.7071647 ], [ 73.0170825, 33.7071574 ], [ 73.0170749, 33.7071547 ], [ 73.017084, 33.7071481 ], [ 73.0171036, 33.7071445 ], [ 73.0171247, 33.7071421 ], [ 73.0171371, 33.7071338 ], [ 73.0171458, 33.7071216 ], [ 73.017153, 33.7071159 ], [ 73.0171614, 33.7071146 ], [ 73.0171726, 33.7071146 ], [ 73.0171817, 33.7071239 ], [ 73.0171913, 33.7071305 ], [ 73.0172069, 33.7071335 ] ] ] } },
{ "type": "Feature", "properties": { "element": "way", "id": 549422359, "natural": "water", "water": "fountain", "type": null }, "geometry": { "type": "Polygon", "coordinates": [ [ [ 73.0221419, 33.7067087 ], [ 73.0221442, 33.7067301 ], [ 73.0221545, 33.7067499 ], [ 73.0221718, 33.706766 ], [ 73.022196, 33.7067772 ], [ 73.0222233, 33.706781 ], [ 73.0222505, 33.706777 ], [ 73.0222746, 33.7067657 ], [ 73.0222927, 33.7067482 ], [ 73.0223026, 33.7067267 ], [ 73.0223034, 33.7067037 ], [ 73.0222948, 33.7066818 ], [ 73.0222779, 33.7066636 ], [ 73.0222562, 33.7066518 ], [ 73.0222312, 33.7066462 ], [ 73.0222053, 33.7066475 ], [ 73.0221812, 33.7066554 ], [ 73.0221614, 33.7066693 ], [ 73.0221478, 33.7066877 ], [ 73.0221419, 33.7067087 ] ] ] } },
{ "type": "Feature", "properties": { "element": "way", "id": 549696038, "natural": "water", "water": null, "type": null }, "geometry": { "type": "Polygon", "coordinates": [ [ [ 73.0247551, 33.7061467 ], [ 73.0247609, 33.706171 ], [ 73.0247763, 33.7061921 ], [ 73.0247994, 33.7062076 ], [ 73.0248246, 33.7062152 ], [ 73.0248514, 33.7062159 ], [ 73.0248771, 33.7062097 ], [ 73.0248993, 33.7061971 ], [ 73.0249157, 33.7061795 ], [ 73.0249248, 33.7061586 ], [ 73.0249256, 33.7061363 ], [ 73.0249181, 33.7061149 ], [ 73.024903, 33.7060965 ], [ 73.0248818, 33.7060828 ], [ 73.0248537, 33.7060749 ], [ 73.024824, 33.7060754 ], [ 73.0247963, 33.7060844 ], [ 73.024774, 33.7061007 ], [ 73.0247597, 33.7061223 ], [ 73.0247551, 33.7061467 ] ] ] } },
{ "type": "Feature", "properties": { "element": "way", "id": 549993275, "natural": "water", "water": null, "type": null }, "geometry": { "type": "Polygon", "coordinates": [ [ [ 73.0232075, 33.7100675 ], [ 73.0232011, 33.710102 ], [ 73.0231819, 33.7101232 ], [ 73.0231564, 33.7101338 ], [ 73.0231245, 33.7101338 ], [ 73.0230863, 33.7101312 ], [ 73.0230607, 33.7101192 ], [ 73.0230161, 33.7101046 ], [ 73.0229906, 33.7100821 ], [ 73.0229746, 33.7100555 ], [ 73.0229746, 33.7100423 ], [ 73.0229842, 33.710025 ], [ 73.0230033, 33.7100184 ], [ 73.0230384, 33.7100184 ], [ 73.0230639, 33.7100104 ], [ 73.0231054, 33.7100051 ], [ 73.0231245, 33.7100011 ], [ 73.0231341, 33.7099892 ], [ 73.0231564, 33.7099706 ], [ 73.0231835, 33.7099653 ], [ 73.0232075, 33.7099693 ], [ 73.0232202, 33.7099865 ], [ 73.0232106, 33.7100091 ], [ 73.0232075, 33.7100675 ] ] ] } },
{ "type": "Feature", "properties": { "element": "way", "id": 549998106, "natural": "water", "water": null, "type": null }, "geometry": { "type": "Polygon", "coordinates": [ [ [ 73.0249042, 33.7025348 ], [ 73.0248692, 33.7025668 ], [ 73.0248501, 33.7025921 ], [ 73.0248366, 33.7026213 ], [ 73.0248283, 33.7026357 ], [ 73.0248258, 33.7026492 ], [ 73.0248278, 33.7026651 ], [ 73.0248549, 33.7026956 ], [ 73.024874, 33.7027182 ], [ 73.0248844, 33.7027341 ], [ 73.0248836, 33.7027447 ], [ 73.0248772, 33.702758 ], [ 73.0248613, 33.7027719 ], [ 73.0248373, 33.7027855 ], [ 73.0248185, 33.7028026 ], [ 73.0248171, 33.7028117 ], [ 73.0248206, 33.70282 ], [ 73.0248282, 33.7028308 ], [ 73.0248429, 33.7028409 ], [ 73.0248772, 33.7028555 ], [ 73.0248996, 33.7028648 ], [ 73.0249378, 33.7028721 ], [ 73.0249809, 33.7028701 ], [ 73.0250232, 33.7028615 ], [ 73.0250606, 33.7028495 ], [ 73.0250973, 33.7028303 ], [ 73.0251115, 33.7028166 ], [ 73.0251176, 33.7028042 ], [ 73.0251169, 33.7027948 ], [ 73.0251125, 33.7027893 ], [ 73.0251021, 33.7027792 ], [ 73.0250734, 33.702756 ], [ 73.0250511, 33.7027288 ], [ 73.0250423, 33.7026899 ], [ 73.0250398, 33.7026577 ], [ 73.0250407, 33.702638 ], [ 73.0250445, 33.7026254 ], [ 73.0250909, 33.702592 ], [ 73.0251034, 33.7025771 ], [ 73.0251106, 33.7025656 ], [ 73.025109, 33.7025172 ], [ 73.0251039, 33.7024702 ], [ 73.0250882, 33.7024483 ], [ 73.0250601, 33.7024328 ], [ 73.0250061, 33.7024145 ], [ 73.0249637, 33.702409 ], [ 73.0249396, 33.7024094 ], [ 73.024928, 33.7024192 ], [ 73.0249248, 33.7024284 ], [ 73.0249327, 33.7024449 ], [ 73.0249522, 33.7024797 ], [ 73.0249536, 33.7024888 ], [ 73.0249505, 33.7025012 ], [ 73.0249315, 33.7025181 ], [ 73.0249042, 33.7025348 ] ] ] } },
{ "type": "Feature", "properties": { "element": "way", "id": 549999646, "natural": "water", "water": null, "type": null }, "geometry": { "type": "Polygon", "coordinates": [ [ [ 73.024887, 33.7038348 ], [ 73.0248964, 33.7038337 ], [ 73.0249085, 33.7038253 ], [ 73.0249165, 33.7038225 ], [ 73.0249259, 33.7038225 ], [ 73.0249326, 33.703825 ], [ 73.024943, 33.7038309 ], [ 73.024952, 33.703832 ], [ 73.0249611, 33.7038275 ], [ 73.0249708, 33.7038117 ], [ 73.0249863, 33.7037867 ], [ 73.0249934, 33.7037734 ], [ 73.024993, 33.703759 ], [ 73.0249857, 33.7037438 ], [ 73.0249669, 33.703711 ], [ 73.0249475, 33.7036845 ], [ 73.0249198, 33.7036497 ], [ 73.0248955, 33.7036202 ], [ 73.0248802, 33.7036049 ], [ 73.0248654, 33.7035983 ], [ 73.0248515, 33.7035993 ], [ 73.024832, 33.7036114 ], [ 73.0248162, 33.7036237 ], [ 73.0248118, 33.7036388 ], [ 73.0248142, 33.7036583 ], [ 73.0248176, 33.7036856 ], [ 73.0248149, 33.7037068 ], [ 73.0248072, 33.7037327 ], [ 73.0247969, 33.7037573 ], [ 73.0247982, 33.7037701 ], [ 73.0248072, 33.7037815 ], [ 73.0248351, 33.7037996 ], [ 73.0248521, 33.7038128 ], [ 73.0248655, 33.7038225 ], [ 73.0248753, 33.7038303 ], [ 73.024887, 33.7038348 ] ] ] } },
{ "type": "Feature", "properties": { "element": "way", "id": 550000336, "natural": "water", "water": null, "type": null }, "geometry": { "type": "Polygon", "coordinates": [ [ [ 73.0256955, 33.7030308 ], [ 73.0257372, 33.7030395 ], [ 73.0257714, 33.7030284 ], [ 73.0257998, 33.702989 ], [ 73.0258112, 33.7029495 ], [ 73.0258036, 33.7029069 ], [ 73.0257827, 33.7028817 ], [ 73.0257638, 33.7028683 ], [ 73.0257154, 33.7028478 ], [ 73.0256879, 33.7028478 ], [ 73.0256623, 33.7028572 ], [ 73.025631, 33.7028785 ], [ 73.0256102, 33.7029196 ], [ 73.0256083, 33.7029598 ], [ 73.0256386, 33.7029937 ], [ 73.0256784, 33.7030134 ], [ 73.0256955, 33.7030308 ] ] ] } },
{ "type": "Feature", "properties": { "element": "way", "id": 550000748, "natural": "water", "water": null, "type": null }, "geometry": { "type": "Polygon", "coordinates": [ [ [ 73.0230399, 33.7051367 ], [ 73.0230062, 33.7051431 ], [ 73.0229768, 33.7051584 ], [ 73.022955, 33.7051808 ], [ 73.0229431, 33.7052078 ], [ 73.0229425, 33.7052366 ], [ 73.0229531, 33.705264 ], [ 73.0229739, 33.705287 ], [ 73.0230024, 33.7053031 ], [ 73.0230357, 33.7053107 ], [ 73.02307, 33.7053089 ], [ 73.0231019, 33.7052979 ], [ 73.0231277, 33.7052789 ], [ 73.0231448, 33.7052541 ], [ 73.0231512, 33.7052259 ], [ 73.0231464, 33.7051975 ], [ 73.0231307, 33.7051719 ], [ 73.0231057, 33.7051519 ], [ 73.0230744, 33.7051397 ], [ 73.0230399, 33.7051367 ] ] ] } },
{ "type": "Feature", "properties": { "element": "way", "id": 550001008, "natural": "water", "water": null, "type": null }, "geometry": { "type": "Polygon", "coordinates": [ [ [ 73.0262574, 33.7026761 ], [ 73.0262574, 33.7026929 ], [ 73.0262494, 33.7027102 ], [ 73.026244, 33.702723 ], [ 73.0262481, 33.7027453 ], [ 73.0262668, 33.7027576 ], [ 73.0262843, 33.7027604 ], [ 73.026299, 33.7027548 ], [ 73.0263057, 33.7027448 ], [ 73.0263071, 33.7027342 ], [ 73.0263057, 33.702723 ], [ 73.0262977, 33.7027135 ], [ 73.0262856, 33.7027063 ], [ 73.0262762, 33.7026918 ], [ 73.0262729, 33.7026784 ], [ 73.0262756, 33.7026683 ], [ 73.026289, 33.7026627 ], [ 73.0263057, 33.70266 ], [ 73.0263225, 33.7026644 ], [ 73.0263292, 33.7026739 ], [ 73.0263399, 33.7026867 ], [ 73.0263611, 33.7026976 ], [ 73.0263781, 33.7027089 ], [ 73.0263848, 33.7027225 ], [ 73.0263893, 33.7027389 ], [ 73.0263989, 33.7027502 ], [ 73.0264096, 33.702752 ], [ 73.0264271, 33.7027417 ], [ 73.026435, 33.7027337 ], [ 73.0264333, 33.702723 ], [ 73.0264243, 33.7027159 ], [ 73.0264017, 33.702715 ], [ 73.0263865, 33.7027089 ], [ 73.0263764, 33.7026967 ], [ 73.0263741, 33.7026845 ], [ 73.0263741, 33.702669 ], [ 73.0263674, 33.7026559 ], [ 73.0263561, 33.7026474 ], [ 73.0263471, 33.7026371 ], [ 73.0263414, 33.7026268 ], [ 73.0263414, 33.7026146 ], [ 73.0263363, 33.7026062 ], [ 73.0263273, 33.7025996 ], [ 73.0263166, 33.7025958 ], [ 73.0262997, 33.7025958 ], [ 73.0262929, 33.702601 ], [ 73.0262839, 33.7026155 ], [ 73.026276, 33.7026249 ], [ 73.0262681, 33.7026263 ], [ 73.0262546, 33.7026263 ], [ 73.0262433, 33.702623 ], [ 73.0262275, 33.7026188 ], [ 73.0262151, 33.7026169 ], [ 73.026201, 33.7026216 ], [ 73.0261959, 33.7026287 ], [ 73.0261914, 33.7026362 ], [ 73.0261914, 33.7026456 ], [ 73.0261965, 33.7026498 ], [ 73.0262145, 33.7026582 ], [ 73.0262348, 33.7026592 ], [ 73.0262529, 33.7026662 ], [ 73.0262574, 33.7026761 ] ] ] } },
{ "type": "Feature", "properties": { "element": "way", "id": 550211731, "natural": "water", "water": null, "type": null }, "geometry": { "type": "Polygon", "coordinates": [ [ [ 73.0237516, 33.7081267 ], [ 73.02374, 33.7081378 ], [ 73.0237332, 33.7081514 ], [ 73.0237319, 33.7081661 ], [ 73.0237363, 33.7081804 ], [ 73.0237459, 33.7081928 ], [ 73.0237596, 33.708202 ], [ 73.0237773, 33.7082074 ], [ 73.0237961, 33.7082075 ], [ 73.0238138, 33.7082023 ], [ 73.0238285, 33.7081926 ], [ 73.0238383, 33.7081793 ], [ 73.0238423, 33.708164 ], [ 73.0238399, 33.7081485 ], [ 73.0238315, 33.7081346 ], [ 73.0238179, 33.7081238 ], [ 73.0238018, 33.7081177 ], [ 73.0237842, 33.7081161 ], [ 73.0237669, 33.7081192 ], [ 73.0237516, 33.7081267 ] ] ] } },
{ "type": "Feature", "properties": { "element": "way", "id": 550214203, "natural": "water", "water": null, "type": null }, "geometry": { "type": "Polygon", "coordinates": [ [ [ 73.0244507, 33.704228 ], [ 73.0244281, 33.7042427 ], [ 73.0244128, 33.7042629 ], [ 73.0244067, 33.7042862 ], [ 73.0244105, 33.7043098 ], [ 73.0244238, 33.704331 ], [ 73.0244449, 33.7043471 ], [ 73.0244713, 33.7043563 ], [ 73.0245, 33.7043574 ], [ 73.0245244, 33.7043516 ], [ 73.0245456, 33.7043399 ], [ 73.0245615, 33.7043234 ], [ 73.0245706, 33.7043036 ], [ 73.0245722, 33.7042825 ], [ 73.0245659, 33.704262 ], [ 73.0245525, 33.704244 ], [ 73.0245332, 33.7042303 ], [ 73.0245066, 33.7042214 ], [ 73.0244779, 33.7042207 ], [ 73.0244507, 33.704228 ] ] ] } },
{ "type": "Feature", "properties": { "element": "way", "id": 557009252, "natural": "water", "water": null, "type": null }, "geometry": { "type": "Polygon", "coordinates": [ [ [ 73.0851675, 33.697613 ], [ 73.0852962, 33.6976796 ], [ 73.0851226, 33.6979121 ], [ 73.0849939, 33.6978456 ], [ 73.0851675, 33.697613 ] ] ] } },
{ "type": "Feature", "properties": { "element": "way", "id": 557009254, "natural": "water", "water": null, "type": null }, "geometry": { "type": "Polygon", "coordinates": [ [ [ 73.084951, 33.6979159 ], [ 73.0850748, 33.6979807 ], [ 73.0849653, 33.6981253 ], [ 73.0848416, 33.6980604 ], [ 73.084951, 33.6979159 ] ] ] } },
{ "type": "Feature", "properties": { "element": "way", "id": 558244976, "natural": "water", "water": null, "type": null }, "geometry": { "type": "Polygon", "coordinates": [ [ [ 73.0587623, 33.7215306 ], [ 73.0587556, 33.7215288 ], [ 73.0587486, 33.7215288 ], [ 73.0587419, 33.7215308 ], [ 73.0587364, 33.7215343 ], [ 73.0587324, 33.7215392 ], [ 73.0587306, 33.7215449 ], [ 73.058731, 33.7215507 ], [ 73.0587336, 33.7215562 ], [ 73.0587382, 33.7215606 ], [ 73.0587446, 33.7215638 ], [ 73.058752, 33.7215649 ], [ 73.0587593, 33.721564 ], [ 73.0587659, 33.721561 ], [ 73.0587709, 33.7215564 ], [ 73.0587737, 33.7215507 ], [ 73.058774, 33.7215445 ], [ 73.058772, 33.7215388 ], [ 73.058768, 33.721534 ], [ 73.0587623, 33.7215306 ] ] ] } },
{ "type": "Feature", "properties": { "element": "way", "id": 838186303, "natural": "water", "water": "reservoir", "type": null }, "geometry": { "type": "Polygon", "coordinates": [ [ [ 73.0366029, 33.7303021 ], [ 73.0372613, 33.730438 ], [ 73.037308, 33.7302963 ], [ 73.0366542, 33.7301506 ], [ 73.0366029, 33.7303021 ] ] ] } },
{ "type": "Feature", "properties": { "element": "way", "id": 1517163313, "natural": "water", "water": "fountain", "type": null }, "geometry": { "type": "Polygon", "coordinates": [ [ [ 73.0606766, 33.7324387 ], [ 73.0607027, 33.7324441 ], [ 73.0607317, 33.7324418 ], [ 73.0607569, 33.7324301 ], [ 73.0607784, 33.7324146 ], [ 73.0607896, 33.7323952 ], [ 73.0607961, 33.7323703 ], [ 73.0607914, 33.7323493 ], [ 73.0607793, 33.7323284 ], [ 73.0607606, 33.7323121 ], [ 73.0607345, 33.7323043 ], [ 73.0607093, 33.7323012 ], [ 73.0606794, 33.7323059 ], [ 73.0606551, 33.7323175 ], [ 73.0606429, 33.7323315 ], [ 73.0606327, 33.7323525 ], [ 73.0606252, 33.7323812 ], [ 73.0606345, 33.7324037 ], [ 73.0606513, 33.7324247 ], [ 73.0606766, 33.7324387 ] ] ] } },
{ "type": "Feature", "properties": { "element": "way", "id": 1517163316, "natural": "water", "water": "pond", "type": null }, "geometry": { "type": "Polygon", "coordinates": [ [ [ 73.0589706, 33.7340838 ], [ 73.0589533, 33.7340571 ], [ 73.0589496, 33.7340274 ], [ 73.0589545, 33.7340048 ], [ 73.0589533, 33.7339843 ], [ 73.0589533, 33.7339556 ], [ 73.0589521, 33.73393 ], [ 73.058957, 33.7339167 ], [ 73.0589693, 33.7338982 ], [ 73.0589903, 33.7338788 ], [ 73.0590125, 33.7338665 ], [ 73.0590581, 33.7338501 ], [ 73.0590938, 33.7338357 ], [ 73.0591221, 33.7338255 ], [ 73.059148, 33.7338081 ], [ 73.0591998, 33.7337773 ], [ 73.0592331, 33.7337445 ], [ 73.0592626, 33.7337168 ], [ 73.059307, 33.733683 ], [ 73.0593686, 33.7336461 ], [ 73.0594142, 33.7336307 ], [ 73.059445, 33.7336236 ], [ 73.059498, 33.7336205 ], [ 73.0595313, 33.7336205 ], [ 73.0595683, 33.7336266 ], [ 73.0595905, 33.7336379 ], [ 73.0596163, 33.7336564 ], [ 73.0596348, 33.733681 ], [ 73.0596459, 33.7336963 ], [ 73.0596595, 33.733725 ], [ 73.0596619, 33.7337496 ], [ 73.0596644, 33.7337794 ], [ 73.0596582, 33.7338193 ], [ 73.0596447, 33.7338398 ], [ 73.05962, 33.7338573 ], [ 73.0595868, 33.7338675 ], [ 73.0595486, 33.7338665 ], [ 73.0595017, 33.7338603 ], [ 73.0594561, 33.7338603 ], [ 73.0594105, 33.7338542 ], [ 73.0593748, 33.7338654 ], [ 73.0593575, 33.7339013 ], [ 73.0593612, 33.733931 ], [ 73.0593563, 33.733969 ], [ 73.0593255, 33.7340018 ], [ 73.0592762, 33.7340284 ], [ 73.059185, 33.7340622 ], [ 73.0591443, 33.7340745 ], [ 73.0591049, 33.7340848 ], [ 73.0590716, 33.7340981 ], [ 73.0590383, 33.7341032 ], [ 73.0590014, 33.734095 ], [ 73.0589706, 33.7340838 ] ] ] } },
{ "type": "Feature", "properties": { "element": "way", "id": 1517163317, "natural": "water", "water": "pond", "type": null }, "geometry": { "type": "Polygon", "coordinates": [ [ [ 73.060216, 33.7346831 ], [ 73.0602347, 33.7346932 ], [ 73.060255, 33.7347014 ], [ 73.0602713, 33.7347068 ], [ 73.0603014, 33.7347115 ], [ 73.0603185, 33.7347115 ], [ 73.0603307, 33.7347102 ], [ 73.0603437, 33.7346878 ], [ 73.0603477, 33.7346763 ], [ 73.0603477, 33.7346635 ], [ 73.0603477, 33.7346513 ], [ 73.0603453, 33.7346364 ], [ 73.060338, 33.734625 ], [ 73.0603339, 33.7346162 ], [ 73.0603331, 33.7345993 ], [ 73.0603469, 33.7345878 ], [ 73.0603689, 33.7345817 ], [ 73.0603786, 33.7345668 ], [ 73.0603835, 33.73456 ], [ 73.0603941, 33.7345256 ], [ 73.0603811, 33.7345161 ], [ 73.0603778, 33.7345039 ], [ 73.0603754, 33.7344938 ], [ 73.0603681, 33.7344911 ], [ 73.0603404, 33.734487 ], [ 73.0603185, 33.7344863 ], [ 73.0602802, 33.734483 ], [ 73.0602632, 33.7344863 ], [ 73.0602567, 33.7344978 ], [ 73.0602461, 33.7345228 ], [ 73.0602315, 33.7345452 ], [ 73.0602363, 33.7345648 ], [ 73.0602453, 33.7345905 ], [ 73.0602412, 33.7346182 ], [ 73.0602315, 33.7346398 ], [ 73.0602209, 33.73465 ], [ 73.0602144, 33.7346682 ], [ 73.060216, 33.7346831 ] ] ] } },
{ "type": "Feature", "properties": { "element": "way", "id": 1517163318, "natural": "water", "water": "pond", "type": null }, "geometry": { "type": "Polygon", "coordinates": [ [ [ 73.0585003, 33.7336052 ], [ 73.0584928, 33.7336177 ], [ 73.058481, 33.7336347 ], [ 73.0584853, 33.7336516 ], [ 73.0585046, 33.7336525 ], [ 73.0585196, 33.7336472 ], [ 73.0585379, 33.7336382 ], [ 73.0585626, 33.7336347 ], [ 73.0586205, 33.7336347 ], [ 73.0586913, 33.7336445 ], [ 73.0587299, 33.7336534 ], [ 73.0587128, 33.7336721 ], [ 73.0586913, 33.733698 ], [ 73.0586817, 33.7337025 ], [ 73.0586763, 33.7336864 ], [ 73.0586623, 33.7336659 ], [ 73.0586398, 33.7336739 ], [ 73.0586033, 33.7336748 ], [ 73.0585754, 33.7336766 ], [ 73.0585551, 33.733665 ], [ 73.0585164, 33.73369 ], [ 73.0585003, 33.733706 ], [ 73.0585046, 33.7337444 ], [ 73.0585336, 33.7337578 ], [ 73.0585207, 33.7337855 ], [ 73.0585357, 33.7337953 ], [ 73.0585475, 33.7337935 ], [ 73.0585551, 33.7337819 ], [ 73.0585765, 33.7337988 ], [ 73.0585883, 33.7338229 ], [ 73.0586033, 33.7338319 ], [ 73.0586269, 33.7338443 ], [ 73.0586645, 33.7338542 ], [ 73.0587053, 33.733847 ], [ 73.0587192, 33.7338319 ], [ 73.0587256, 33.7338122 ], [ 73.0587224, 33.7337765 ], [ 73.0587267, 33.733748 ], [ 73.0587428, 33.733731 ], [ 73.0587385, 33.7337185 ], [ 73.0587374, 33.7336998 ], [ 73.0587696, 33.7336713 ], [ 73.0587782, 33.7336445 ], [ 73.0587728, 33.7336168 ], [ 73.0587299, 33.7336061 ], [ 73.058687, 33.7336008 ], [ 73.0586452, 33.7335954 ], [ 73.0586119, 33.7335901 ], [ 73.0585808, 33.7335954 ], [ 73.0585465, 33.7335669 ], [ 73.0585293, 33.7335562 ], [ 73.0585089, 33.7335553 ], [ 73.0584885, 33.7335606 ], [ 73.0584896, 33.7335767 ], [ 73.0585003, 33.7336052 ] ] ] } },
{ "type": "Feature", "properties": { "element": "way", "id": 1534282624, "natural": "water", "water": null, "type": null }, "geometry": { "type": "Polygon", "coordinates": [ [ [ 73.0756107, 33.6910685 ], [ 73.0759373, 33.6910685 ], [ 73.0761713, 33.6904481 ], [ 73.0756924, 33.6904753 ], [ 73.0756107, 33.6910685 ] ] ] } }
]
}
