{"type": "FeatureCollection", "features": [{"type": "Feature", "properties": {"name": "Modeled area", "note": "Terrain data covers only this rectangle. Outside it nothing is modeled -- absence of a risk zone is not evidence of safety.", "west": 73.00986111114463, "south": 33.670138888885404, "east": 73.08486111114463, "north": 33.735138888885416, "cell_width_m": 25.7, "cell_height_m": 30.9}, "geometry": {"type": "Polygon", "coordinates": [[[73.08486111114463, 33.670138888885404], [73.08486111114463, 33.735138888885416], [73.00986111114463, 33.735138888885416], [73.00986111114463, 33.670138888885404], [73.08486111114463, 33.670138888885404]]]}}]}