{"type": "FeatureCollection", "properties": {"min_drop_m": 2, "max_drop_m": 6, "approach_m": 150, "classes": ["trunk", "primary", "secondary"], "grade_sep_radius_m": 40, "kinds": {"underpass": "sag at a grade-separated crossing", "sag": "sag through ordinary terrain"}}, "features": [{"type": "Feature", "properties": {"drop_m": 6, "sink_depth_m": 0, "highway": "trunk", "name": null, "u": 36204293, "v": 1720966193, "kind": "underpass"}, "geometry": {"type": "Point", "coordinates": [73.065068775, 33.693848599999995]}}, {"type": "Feature", "properties": {"drop_m": 6, "sink_depth_m": 0, "highway": "secondary", "name": null, "u": 75739274, "v": 5375266538, "kind": "sag"}, "geometry": {"type": "Point", "coordinates": [73.0757441, 33.6853292]}}, {"type": "Feature", "properties": {"drop_m": 6, "sink_depth_m": 2, "highway": "secondary", "name": null, "u": 189233358, "v": 13016189623, "kind": "sag"}, "geometry": {"type": "Point", "coordinates": [73.0310001, 33.6949926]}}, {"type": "Feature", "properties": {"drop_m": 6, "sink_depth_m": 0, "highway": "secondary", "name": null, "u": 189233893, "v": 7592301911, "kind": "sag"}, "geometry": {"type": "Point", "coordinates": [73.04047376956521, 33.699961673913045]}}, {"type": "Feature", "properties": {"drop_m": 6, "sink_depth_m": 0, "highway": "primary", "name": null, "u": 219124219, "v": 13007320999, "kind": "sag"}, "geometry": {"type": "Point", "coordinates": [73.02053143333333, 33.69144466666667]}}, {"type": "Feature", "properties": {"drop_m": 6, "sink_depth_m": 4, "highway": "primary", "name": null, "u": 1711751060, "v": 4503858002, "kind": "sag"}, "geometry": {"type": "Point", "coordinates": [73.04828834545455, 33.68393386363636]}}, {"type": "Feature", "properties": {"drop_m": 6, "sink_depth_m": 0, "highway": "secondary", "name": null, "u": 4503734082, "v": 197911715, "kind": "sag"}, "geometry": {"type": "Point", "coordinates": [73.01993532, 33.671217]}}, {"type": "Feature", "properties": {"drop_m": 6, "sink_depth_m": 0, "highway": "trunk", "name": null, "u": 5347714312, "v": 11505876376, "kind": "underpass"}, "geometry": {"type": "Point", "coordinates": [73.04817427500001, 33.684786374999995]}}, {"type": "Feature", "properties": {"drop_m": 6, "sink_depth_m": 3, "highway": "primary", "name": null, "u": 7523310610, "v": 6859793881, "kind": "sag"}, "geometry": {"type": "Point", "coordinates": [73.06723388, 33.71567034]}}, {"type": "Feature", "properties": {"drop_m": 6, "sink_depth_m": 6, "highway": "primary", "name": null, "u": 7523310610, "v": 6859793881, "kind": "sag"}, "geometry": {"type": "Point", "coordinates": [73.06568876, 33.714850713333334]}}, {"type": "Feature", "properties": {"drop_m": 6, "sink_depth_m": 6, "highway": "primary", "name": null, "u": 7523310610, "v": 6859793881, "kind": "sag"}, "geometry": {"type": "Point", "coordinates": [73.06530248, 33.71464580666667]}}, {"type": "Feature", "properties": {"drop_m": 6, "sink_depth_m": 5, "highway": "trunk", "name": null, "u": 11505876376, "v": 9608056570, "kind": "sag"}, "geometry": {"type": "Point", "coordinates": [73.02960246222221, 33.67500327555556]}}, {"type": "Feature", "properties": {"drop_m": 6, "sink_depth_m": 1, "highway": "secondary", "name": null, "u": 12501285666, "v": 7523322825, "kind": "sag"}, "geometry": {"type": "Point", "coordinates": [73.080478, 33.72120474444445]}}, {"type": "Feature", "properties": {"drop_m": 6, "sink_depth_m": 1, "highway": "primary", "name": null, "u": 12956905814, "v": 12956905822, "kind": "sag"}, "geometry": {"type": "Point", "coordinates": [73.03860104, 33.70067244]}}, {"type": "Feature", "properties": {"drop_m": 6, "sink_depth_m": 1, "highway": "primary", "name": null, "u": 12956905814, "v": 12956905822, "kind": "sag"}, "geometry": {"type": "Point", "coordinates": [73.03819632000001, 33.70047192]}}, {"type": "Feature", "properties": {"drop_m": 5, "sink_depth_m": 2, "highway": "secondary", "name": null, "u": 83701838, "v": 254609683, "kind": "sag"}, "geometry": {"type": "Point", "coordinates": [73.0565525, 33.69040715]}}, {"type": "Feature", "properties": {"drop_m": 5, "sink_depth_m": 0, "highway": "secondary", "name": null, "u": 87291092, "v": 107476343, "kind": "sag"}, "geometry": {"type": "Point", "coordinates": [73.0223874, 33.69033114285715]}}, {"type": "Feature", "properties": {"drop_m": 5, "sink_depth_m": 2, "highway": "secondary", "name": null, "u": 122309399, "v": 189138584, "kind": "sag"}, "geometry": {"type": "Point", "coordinates": [73.03623425, 33.68864355]}}, {"type": "Feature", "properties": {"drop_m": 5, "sink_depth_m": 1, "highway": "primary", "name": null, "u": 180139319, "v": 13433455345, "kind": "sag"}, "geometry": {"type": "Point", "coordinates": [73.01651894, 33.68876416]}}, {"type": "Feature", "properties": {"drop_m": 5, "sink_depth_m": 3, "highway": "secondary", "name": null, "u": 189126645, "v": 197905790, "kind": "sag"}, "geometry": {"type": "Point", "coordinates": [73.01716655, 33.67938205]}}, {"type": "Feature", "properties": {"drop_m": 5, "sink_depth_m": 0, "highway": "primary", "name": null, "u": 219124219, "v": 13007320999, "kind": "sag"}, "geometry": {"type": "Point", "coordinates": [73.02089705, 33.6916394]}}, {"type": "Feature", "properties": {"drop_m": 5, "sink_depth_m": 4, "highway": "secondary", "name": null, "u": 247048641, "v": 180171161, "kind": "sag"}, "geometry": {"type": "Point", "coordinates": [73.06781758888889, 33.71807121111111]}}, {"type": "Feature", "properties": {"drop_m": 5, "sink_depth_m": 5, "highway": "secondary", "name": null, "u": 247660100, "v": 231285500, "kind": "sag"}, "geometry": {"type": "Point", "coordinates": [73.05826721199999, 33.713061996]}}, {"type": "Feature", "properties": {"drop_m": 5, "sink_depth_m": 0, "highway": "primary", "name": null, "u": 247662122, "v": 1714534145, "kind": "sag"}, "geometry": {"type": "Point", "coordinates": [73.0646792, 33.7329116]}}, {"type": "Feature", "properties": {"drop_m": 5, "sink_depth_m": 1, "highway": "secondary", "name": null, "u": 250888680, "v": 252606468, "kind": "sag"}, "geometry": {"type": "Point", "coordinates": [73.0641943, 33.6959252]}}, {"type": "Feature", "properties": {"drop_m": 5, "sink_depth_m": 0, "highway": "secondary", "name": null, "u": 255927142, "v": 1081046595, "kind": "sag"}, "geometry": {"type": "Point", "coordinates": [73.079899, 33.7263328]}}, {"type": "Feature", "properties": {"drop_m": 5, "sink_depth_m": 0, "highway": "secondary", "name": null, "u": 255927142, "v": 1081046595, "kind": "sag"}, "geometry": {"type": "Point", "coordinates": [73.0801005, 33.7260086]}}, {"type": "Feature", "properties": {"drop_m": 5, "sink_depth_m": 0, "highway": "primary", "name": null, "u": 1705464449, "v": 1705464450, "kind": "sag"}, "geometry": {"type": "Point", "coordinates": [73.05107326666666, 33.72596166666666]}}, {"type": "Feature", "properties": {"drop_m": 5, "sink_depth_m": 3, "highway": "primary", "name": null, "u": 1705523893, "v": 80300477, "kind": "sag"}, "geometry": {"type": "Point", "coordinates": [73.0512183, 33.707257]}}, {"type": "Feature", "properties": {"drop_m": 5, "sink_depth_m": 3, "highway": "primary", "name": null, "u": 1714712802, "v": 1714741612, "kind": "sag"}, "geometry": {"type": "Point", "coordinates": [73.0763359, 33.71166322727273]}}, {"type": "Feature", "properties": {"drop_m": 5, "sink_depth_m": 3, "highway": "secondary", "name": null, "u": 3302059790, "v": 13771791288, "kind": "sag"}, "geometry": {"type": "Point", "coordinates": [73.01291727142858, 33.69715698571429]}}, {"type": "Feature", "properties": {"drop_m": 5, "sink_depth_m": 3, "highway": "trunk", "name": null, "u": 4503858001, "v": 5892714672, "kind": "sag"}, "geometry": {"type": "Point", "coordinates": [73.05579354545455, 33.68900664545455]}}, {"type": "Feature", "properties": {"drop_m": 5, "sink_depth_m": 0, "highway": "trunk", "name": null, "u": 4503900114, "v": 5347714319, "kind": "sag"}, "geometry": {"type": "Point", "coordinates": [73.0486938, 33.6853232]}}, {"type": "Feature", "properties": {"drop_m": 5, "sink_depth_m": 3, "highway": "trunk", "name": null, "u": 5185127799, "v": 4314988727, "kind": "sag"}, "geometry": {"type": "Point", "coordinates": [73.0754056, 33.6799887]}}, {"type": "Feature", "properties": {"drop_m": 5, "sink_depth_m": 3, "highway": "trunk", "name": null, "u": 5347714312, "v": 11505876376, "kind": "sag"}, "geometry": {"type": "Point", "coordinates": [73.05272810625, 33.687116493750004]}}, {"type": "Feature", "properties": {"drop_m": 5, "sink_depth_m": 3, "highway": "trunk", "name": null, "u": 5347714312, "v": 11505876376, "kind": "sag"}, "geometry": {"type": "Point", "coordinates": [73.05233941875, 33.68691518125]}}, {"type": "Feature", "properties": {"drop_m": 5, "sink_depth_m": 0, "highway": "trunk", "name": null, "u": 5347714312, "v": 11505876376, "kind": "underpass"}, "geometry": {"type": "Point", "coordinates": [73.047802825, 33.684578925]}}, {"type": "Feature", "properties": {"drop_m": 5, "sink_depth_m": 2, "highway": "primary", "name": null, "u": 7515159613, "v": 12956905861, "kind": "sag"}, "geometry": {"type": "Point", "coordinates": [73.0301548, 33.7079609]}}, {"type": "Feature", "properties": {"drop_m": 5, "sink_depth_m": 2, "highway": "primary", "name": null, "u": 7523310610, "v": 6859793881, "kind": "sag"}, "geometry": {"type": "Point", "coordinates": [73.0668476, 33.715465433333335]}}, {"type": "Feature", "properties": {"drop_m": 5, "sink_depth_m": 0, "highway": "secondary", "name": null, "u": 10774378071, "v": 5082115975, "kind": "sag"}, "geometry": {"type": "Point", "coordinates": [73.03989634999999, 33.68152135]}}, {"type": "Feature", "properties": {"drop_m": 5, "sink_depth_m": 0, "highway": "secondary", "name": null, "u": 10805675158, "v": 1718372843, "kind": "sag"}, "geometry": {"type": "Point", "coordinates": [73.059721525, 33.71036875]}}, {"type": "Feature", "properties": {"drop_m": 5, "sink_depth_m": 4, "highway": "trunk", "name": null, "u": 11505876376, "v": 9608056570, "kind": "sag"}, "geometry": {"type": "Point", "coordinates": [73.041121925, 33.680857675]}}, {"type": "Feature", "properties": {"drop_m": 5, "sink_depth_m": 0, "highway": "primary", "name": null, "u": 12956905814, "v": 12956905822, "kind": "sag"}, "geometry": {"type": "Point", "coordinates": [73.038991025, 33.7008706]}}, {"type": "Feature", "properties": {"drop_m": 5, "sink_depth_m": 3, "highway": "primary", "name": null, "u": 13596781674, "v": 13596781653, "kind": "sag"}, "geometry": {"type": "Point", "coordinates": [73.029283075, 33.714500375]}}, {"type": "Feature", "properties": {"drop_m": 4, "sink_depth_m": 2, "highway": "secondary", "name": null, "u": 75739274, "v": 5375266538, "kind": "sag"}, "geometry": {"type": "Point", "coordinates": [73.0740716, 33.6881722]}}, {"type": "Feature", "properties": {"drop_m": 4, "sink_depth_m": 1, "highway": "primary", "name": null, "u": 80300477, "v": 87282921, "kind": "sag"}, "geometry": {"type": "Point", "coordinates": [73.04429382105263, 33.703659078947375]}}, {"type": "Feature", "properties": {"drop_m": 4, "sink_depth_m": 1, "highway": "secondary", "name": null, "u": 83701838, "v": 254609683, "kind": "sag"}, "geometry": {"type": "Point", "coordinates": [73.0569749, 33.69063245]}}, {"type": "Feature", "properties": {"drop_m": 4, "sink_depth_m": 0, "highway": "secondary", "name": null, "u": 87291092, "v": 107476343, "kind": "sag"}, "geometry": {"type": "Point", "coordinates": [73.02183360000001, 33.690042500000004]}}, {"type": "Feature", "properties": {"drop_m": 4, "sink_depth_m": 0, "highway": "secondary", "name": null, "u": 189132043, "v": 208987119, "kind": "sag"}, "geometry": {"type": "Point", "coordinates": [73.026005, 33.6847889]}}, {"type": "Feature", "properties": {"drop_m": 4, "sink_depth_m": 0, "highway": "secondary", "name": null, "u": 189132043, "v": 208987119, "kind": "sag"}, "geometry": {"type": "Point", "coordinates": [73.02559462857143, 33.68456772857143]}}, {"type": "Feature", "properties": {"drop_m": 4, "sink_depth_m": 1, "highway": "secondary", "name": null, "u": 189134028, "v": 240078760, "kind": "sag"}, "geometry": {"type": "Point", "coordinates": [73.034919925, 33.683481625]}}, {"type": "Feature", "properties": {"drop_m": 4, "sink_depth_m": 1, "highway": "secondary", "name": null, "u": 189138584, "v": 247716816, "kind": "sag"}, "geometry": {"type": "Point", "coordinates": [73.035973925, 33.68609075]}}, {"type": "Feature", "properties": {"drop_m": 4, "sink_depth_m": 0, "highway": "secondary", "name": null, "u": 189233893, "v": 7592301911, "kind": "sag"}, "geometry": {"type": "Point", "coordinates": [73.04009314347826, 33.69976390869565]}}, {"type": "Feature", "properties": {"drop_m": 4, "sink_depth_m": 0, "highway": "secondary", "name": null, "u": 244393270, "v": 4557839421, "kind": "sag"}, "geometry": {"type": "Point", "coordinates": [73.02239073999999, 33.68452704]}}, {"type": "Feature", "properties": {"drop_m": 4, "sink_depth_m": 0, "highway": "primary", "name": null, "u": 245415771, "v": 180171172, "kind": "sag"}, "geometry": {"type": "Point", "coordinates": [73.0579915, 33.72958124]}}, {"type": "Feature", "properties": {"drop_m": 4, "sink_depth_m": 0, "highway": "primary", "name": null, "u": 245415771, "v": 180171172, "kind": "sag"}, "geometry": {"type": "Point", "coordinates": [73.0584732, 33.7298263]}}, {"type": "Feature", "properties": {"drop_m": 4, "sink_depth_m": 2, "highway": "trunk", "name": null, "u": 254729470, "v": 5185316672, "kind": "sag"}, "geometry": {"type": "Point", "coordinates": [73.069147775, 33.68874835]}}, {"type": "Feature", "properties": {"drop_m": 4, "sink_depth_m": 3, "highway": "secondary", "name": null, "u": 255238839, "v": 240489319, "kind": "sag"}, "geometry": {"type": "Point", "coordinates": [73.0315001, 33.6951223]}}, {"type": "Feature", "properties": {"drop_m": 4, "sink_depth_m": 0, "highway": "secondary", "name": null, "u": 255927142, "v": 1081046595, "kind": "sag"}, "geometry": {"type": "Point", "coordinates": [73.08139976, 33.72412734]}}, {"type": "Feature", "properties": {"drop_m": 4, "sink_depth_m": 3, "highway": "trunk", "name": null, "u": 1425915152, "v": 5347714312, "kind": "sag"}, "geometry": {"type": "Point", "coordinates": [73.05559799999999, 33.68864294117647]}}, {"type": "Feature", "properties": {"drop_m": 4, "sink_depth_m": 3, "highway": "primary", "name": null, "u": 1706929883, "v": 1706882936, "kind": "sag"}, "geometry": {"type": "Point", "coordinates": [73.05577086842105, 33.70670292105263]}}, {"type": "Feature", "properties": {"drop_m": 4, "sink_depth_m": 3, "highway": "primary", "name": null, "u": 1706958699, "v": 7045567836, "kind": "sag"}, "geometry": {"type": "Point", "coordinates": [73.04648312424243, 33.7188882030303]}}, {"type": "Feature", "properties": {"drop_m": 4, "sink_depth_m": 0, "highway": "primary", "name": null, "u": 1711756521, "v": 4503858026, "kind": "sag"}, "geometry": {"type": "Point", "coordinates": [73.0509348875, 33.67985205]}}, {"type": "Feature", "properties": {"drop_m": 4, "sink_depth_m": 4, "highway": "primary", "name": null, "u": 1713173559, "v": 6647837719, "kind": "sag"}, "geometry": {"type": "Point", "coordinates": [73.06190078, 33.73074744]}}, {"type": "Feature", "properties": {"drop_m": 4, "sink_depth_m": 3, "highway": "primary", "name": null, "u": 1713173718, "v": 1713173791, "kind": "sag"}, "geometry": {"type": "Point", "coordinates": [73.06429247142857, 33.72755382857143]}}, {"type": "Feature", "properties": {"drop_m": 4, "sink_depth_m": 3, "highway": "primary", "name": null, "u": 1714560194, "v": 1714701660, "kind": "underpass"}, "geometry": {"type": "Point", "coordinates": [73.072236925, 33.716908375]}}, {"type": "Feature", "properties": {"drop_m": 4, "sink_depth_m": 0, "highway": "primary", "name": null, "u": 2351617947, "v": 4954380790, "kind": "underpass"}, "geometry": {"type": "Point", "coordinates": [73.0821103, 33.7234587]}}, {"type": "Feature", "properties": {"drop_m": 4, "sink_depth_m": 2, "highway": "secondary", "name": null, "u": 3302059790, "v": 13771791288, "kind": "sag"}, "geometry": {"type": "Point", "coordinates": [73.0126783, 33.6974755]}}, {"type": "Feature", "properties": {"drop_m": 4, "sink_depth_m": 1, "highway": "trunk", "name": null, "u": 4314988727, "v": 64943351, "kind": "sag"}, "geometry": {"type": "Point", "coordinates": [73.071613668, 33.685023920000006]}}, {"type": "Feature", "properties": {"drop_m": 4, "sink_depth_m": 1, "highway": "trunk", "name": null, "u": 4314988727, "v": 64943351, "kind": "sag"}, "geometry": {"type": "Point", "coordinates": [73.07125834285715, 33.685502861904766]}}, {"type": "Feature", "properties": {"drop_m": 4, "sink_depth_m": 3, "highway": "trunk", "name": null, "u": 4314988727, "v": 64943351, "kind": "sag"}, "geometry": {"type": "Point", "coordinates": [73.06924335714285, 33.688225938095236]}}, {"type": "Feature", "properties": {"drop_m": 4, "sink_depth_m": 0, "highway": "secondary", "name": null, "u": 4503734082, "v": 197911715, "kind": "sag"}, "geometry": {"type": "Point", "coordinates": [73.02032836, 33.671421]}}, {"type": "Feature", "properties": {"drop_m": 4, "sink_depth_m": 3, "highway": "trunk", "name": null, "u": 5347714312, "v": 11505876376, "kind": "sag"}, "geometry": {"type": "Point", "coordinates": [73.05195073125, 33.686713868750005]}}, {"type": "Feature", "properties": {"drop_m": 4, "sink_depth_m": 3, "highway": "trunk", "name": null, "u": 5347714312, "v": 11505876376, "kind": "sag"}, "geometry": {"type": "Point", "coordinates": [73.05096536, 33.686211820000004]}}, {"type": "Feature", "properties": {"drop_m": 4, "sink_depth_m": 3, "highway": "primary", "name": null, "u": 5367679536, "v": 208872339, "kind": "sag"}, "geometry": {"type": "Point", "coordinates": [73.05959407142856, 33.71197495714286]}}, {"type": "Feature", "properties": {"drop_m": 4, "sink_depth_m": 1, "highway": "primary", "name": null, "u": 7515159613, "v": 12956905861, "kind": "sag"}, "geometry": {"type": "Point", "coordinates": [73.03039194, 33.707639220000004]}}, {"type": "Feature", "properties": {"drop_m": 4, "sink_depth_m": 0, "highway": "primary", "name": null, "u": 7523310610, "v": 6859793881, "kind": "sag"}, "geometry": {"type": "Point", "coordinates": [73.0683896, 33.71629154285714]}}, {"type": "Feature", "properties": {"drop_m": 4, "sink_depth_m": 1, "highway": "secondary", "name": null, "u": 7523322822, "v": 6668028446, "kind": "sag"}, "geometry": {"type": "Point", "coordinates": [73.0808292, 33.7214877]}}, {"type": "Feature", "properties": {"drop_m": 4, "sink_depth_m": 0, "highway": "trunk", "name": null, "u": 9608056570, "v": 9608056598, "kind": "sag"}, "geometry": {"type": "Point", "coordinates": [73.0250883, 33.6724734]}}, {"type": "Feature", "properties": {"drop_m": 4, "sink_depth_m": 0, "highway": "trunk", "name": null, "u": 9608056585, "v": 9608056582, "kind": "sag"}, "geometry": {"type": "Point", "coordinates": [73.02320174, 33.67202408]}}, {"type": "Feature", "properties": {"drop_m": 4, "sink_depth_m": 0, "highway": "trunk", "name": null, "u": 9608056585, "v": 9608056582, "kind": "sag"}, "geometry": {"type": "Point", "coordinates": [73.02511775, 33.673020075000004]}}, {"type": "Feature", "properties": {"drop_m": 4, "sink_depth_m": 1, "highway": "primary", "name": null, "u": 10210328673, "v": 12389549631, "kind": "underpass"}, "geometry": {"type": "Point", "coordinates": [73.06097774545455, 33.69956915454546]}}, {"type": "Feature", "properties": {"drop_m": 4, "sink_depth_m": 1, "highway": "secondary", "name": null, "u": 10774378074, "v": 5082115973, "kind": "sag"}, "geometry": {"type": "Point", "coordinates": [73.0443061, 33.6840184]}}, {"type": "Feature", "properties": {"drop_m": 4, "sink_depth_m": 4, "highway": "secondary", "name": null, "u": 11200587940, "v": 13845791773, "kind": "sag"}, "geometry": {"type": "Point", "coordinates": [73.0156973, 33.6932467]}}, {"type": "Feature", "properties": {"drop_m": 4, "sink_depth_m": 0, "highway": "primary", "name": null, "u": 12956905840, "v": 240267225, "kind": "sag"}, "geometry": {"type": "Point", "coordinates": [73.03542804, 33.69921308]}}, {"type": "Feature", "properties": {"drop_m": 4, "sink_depth_m": 0, "highway": "primary", "name": null, "u": 12956905840, "v": 240267225, "kind": "sag"}, "geometry": {"type": "Point", "coordinates": [73.0358126, 33.6994186]}}, {"type": "Feature", "properties": {"drop_m": 4, "sink_depth_m": 0, "highway": "primary", "name": null, "u": 12956905863, "v": 122277600, "kind": "sag"}, "geometry": {"type": "Point", "coordinates": [73.03122877272726, 33.70622362727273]}}, {"type": "Feature", "properties": {"drop_m": 4, "sink_depth_m": 0, "highway": "primary", "name": null, "u": 13596787517, "v": 13596781624, "kind": "sag"}, "geometry": {"type": "Point", "coordinates": [73.02822881428571, 33.714026371428574]}}, {"type": "Feature", "properties": {"drop_m": 3, "sink_depth_m": 0, "highway": "trunk", "name": null, "u": 36204293, "v": 1720966193, "kind": "sag"}, "geometry": {"type": "Point", "coordinates": [73.06461733333333, 33.693614866666664]}}, {"type": "Feature", "properties": {"drop_m": 3, "sink_depth_m": 0, "highway": "secondary", "name": null, "u": 53094953, "v": 245437194, "kind": "sag"}, "geometry": {"type": "Point", "coordinates": [73.0521611, 33.7059532]}}, {"type": "Feature", "properties": {"drop_m": 3, "sink_depth_m": 0, "highway": "secondary", "name": null, "u": 53094953, "v": 245437194, "kind": "sag"}, "geometry": {"type": "Point", "coordinates": [73.04756959999999, 33.703538933333334]}}, {"type": "Feature", "properties": {"drop_m": 3, "sink_depth_m": 0, "highway": "secondary", "name": null, "u": 59634791, "v": 10773958124, "kind": "sag"}, "geometry": {"type": "Point", "coordinates": [73.0711757, 33.683186255555555]}}, {"type": "Feature", "properties": {"drop_m": 3, "sink_depth_m": 0, "highway": "secondary", "name": null, "u": 59634791, "v": 10773958124, "kind": "sag"}, "geometry": {"type": "Point", "coordinates": [73.07144385000001, 33.68282445]}}, {"type": "Feature", "properties": {"drop_m": 3, "sink_depth_m": 0, "highway": "secondary", "name": null, "u": 61988382, "v": 180164129, "kind": "sag"}, "geometry": {"type": "Point", "coordinates": [73.03765070588236, 33.70225801764706]}}, {"type": "Feature", "properties": {"drop_m": 3, "sink_depth_m": 0, "highway": "secondary", "name": null, "u": 75739274, "v": 5375266538, "kind": "sag"}, "geometry": {"type": "Point", "coordinates": [73.0781626, 33.681624049999996]}}, {"type": "Feature", "properties": {"drop_m": 3, "sink_depth_m": 0, "highway": "secondary", "name": null, "u": 75739274, "v": 5375266538, "kind": "sag"}, "geometry": {"type": "Point", "coordinates": [73.0780073, 33.6819978]}}, {"type": "Feature", "properties": {"drop_m": 3, "sink_depth_m": 0, "highway": "primary", "name": null, "u": 80300477, "v": 87282921, "kind": "sag"}, "geometry": {"type": "Point", "coordinates": [73.04724806, 33.70519876]}}, {"type": "Feature", "properties": {"drop_m": 3, "sink_depth_m": 3, "highway": "secondary", "name": null, "u": 180142835, "v": 11200587940, "kind": "sag"}, "geometry": {"type": "Point", "coordinates": [73.0174735, 33.6908279]}}, {"type": "Feature", "properties": {"drop_m": 3, "sink_depth_m": 0, "highway": "secondary", "name": null, "u": 189138584, "v": 247716816, "kind": "sag"}, "geometry": {"type": "Point", "coordinates": [73.035957975, 33.68647465]}}, {"type": "Feature", "properties": {"drop_m": 3, "sink_depth_m": 0, "highway": "secondary", "name": null, "u": 189142138, "v": 189144653, "kind": "sag"}, "geometry": {"type": "Point", "coordinates": [73.035729925, 33.68853315]}}, {"type": "Feature", "properties": {"drop_m": 3, "sink_depth_m": 0, "highway": "primary", "name": null, "u": 224537627, "v": 224537632, "kind": "sag"}, "geometry": {"type": "Point", "coordinates": [73.04643786, 33.72338814]}}, {"type": "Feature", "properties": {"drop_m": 3, "sink_depth_m": 0, "highway": "primary", "name": null, "u": 224537627, "v": 224537632, "kind": "sag"}, "geometry": {"type": "Point", "coordinates": [73.04604218, 33.72318302]}}, {"type": "Feature", "properties": {"drop_m": 3, "sink_depth_m": 2, "highway": "primary", "name": null, "u": 243067054, "v": 208633465, "kind": "underpass"}, "geometry": {"type": "Point", "coordinates": [73.072108455, 33.717278405]}}, {"type": "Feature", "properties": {"drop_m": 3, "sink_depth_m": 2, "highway": "secondary", "name": null, "u": 245431124, "v": 247048516, "kind": "sag"}, "geometry": {"type": "Point", "coordinates": [73.06253055, 33.71526791875]}}, {"type": "Feature", "properties": {"drop_m": 3, "sink_depth_m": 2, "highway": "secondary", "name": null, "u": 245431124, "v": 247048516, "kind": "sag"}, "geometry": {"type": "Point", "coordinates": [73.06289905, 33.71546515625]}}, {"type": "Feature", "properties": {"drop_m": 3, "sink_depth_m": 1, "highway": "primary", "name": null, "u": 246848988, "v": 245432134, "kind": "sag"}, "geometry": {"type": "Point", "coordinates": [73.0554505, 33.7281236]}}, {"type": "Feature", "properties": {"drop_m": 3, "sink_depth_m": 3, "highway": "secondary", "name": null, "u": 247660100, "v": 231285500, "kind": "sag"}, "geometry": {"type": "Point", "coordinates": [73.05770162799999, 33.712770024]}}, {"type": "Feature", "properties": {"drop_m": 3, "sink_depth_m": 0, "highway": "trunk", "name": null, "u": 247921970, "v": 10207915467, "kind": "sag"}, "geometry": {"type": "Point", "coordinates": [73.07377548571428, 33.698409885714284]}}, {"type": "Feature", "properties": {"drop_m": 3, "sink_depth_m": 0, "highway": "trunk", "name": null, "u": 247921970, "v": 10207915467, "kind": "sag"}, "geometry": {"type": "Point", "coordinates": [73.07629981428572, 33.69972952857143]}}, {"type": "Feature", "properties": {"drop_m": 3, "sink_depth_m": 0, "highway": "secondary", "name": null, "u": 248482577, "v": 10234732179, "kind": "sag"}, "geometry": {"type": "Point", "coordinates": [73.03015285000001, 33.689653324999995]}}, {"type": "Feature", "properties": {"drop_m": 3, "sink_depth_m": 0, "highway": "secondary", "name": null, "u": 248482735, "v": 87291092, "kind": "sag"}, "geometry": {"type": "Point", "coordinates": [73.0278797, 33.693220860000004]}}, {"type": "Feature", "properties": {"drop_m": 3, "sink_depth_m": 0, "highway": "secondary", "name": null, "u": 248482735, "v": 87291092, "kind": "sag"}, "geometry": {"type": "Point", "coordinates": [73.0274793, 33.69301442]}}, {"type": "Feature", "properties": {"drop_m": 3, "sink_depth_m": 0, "highway": "primary", "name": null, "u": 250162883, "v": 250163814, "kind": "sag"}, "geometry": {"type": "Point", "coordinates": [73.04286926, 33.69071631]}}, {"type": "Feature", "properties": {"drop_m": 3, "sink_depth_m": 0, "highway": "secondary", "name": null, "u": 250888680, "v": 252606468, "kind": "sag"}, "geometry": {"type": "Point", "coordinates": [73.0647739, 33.6959425]}}, {"type": "Feature", "properties": {"drop_m": 3, "sink_depth_m": 0, "highway": "primary", "name": null, "u": 250888680, "v": 2134897574, "kind": "sag"}, "geometry": {"type": "Point", "coordinates": [73.0641264, 33.6953547]}}, {"type": "Feature", "properties": {"drop_m": 3, "sink_depth_m": 0, "highway": "primary", "name": null, "u": 252112020, "v": 371383570, "kind": "sag"}, "geometry": {"type": "Point", "coordinates": [73.04486634736841, 33.70424004210526]}}, {"type": "Feature", "properties": {"drop_m": 3, "sink_depth_m": 1, "highway": "primary", "name": null, "u": 252112020, "v": 371383570, "kind": "underpass"}, "geometry": {"type": "Point", "coordinates": [73.04562306, 33.704634633333335]}}, {"type": "Feature", "properties": {"drop_m": 3, "sink_depth_m": 0, "highway": "secondary", "name": null, "u": 253162849, "v": 258660516, "kind": "underpass"}, "geometry": {"type": "Point", "coordinates": [73.0825376, 33.7225188]}}, {"type": "Feature", "properties": {"drop_m": 3, "sink_depth_m": 0, "highway": "secondary", "name": null, "u": 253162849, "v": 258660516, "kind": "sag"}, "geometry": {"type": "Point", "coordinates": [73.08226214999999, 33.72288305]}}, {"type": "Feature", "properties": {"drop_m": 3, "sink_depth_m": 0, "highway": "secondary", "name": null, "u": 254609683, "v": 180556707, "kind": "sag"}, "geometry": {"type": "Point", "coordinates": [73.0607225, 33.6925668]}}, {"type": "Feature", "properties": {"drop_m": 3, "sink_depth_m": 0, "highway": "trunk", "name": null, "u": 254729470, "v": 5185316672, "kind": "sag"}, "geometry": {"type": "Point", "coordinates": [73.067696875, 33.6906629]}}, {"type": "Feature", "properties": {"drop_m": 3, "sink_depth_m": 2, "highway": "trunk", "name": null, "u": 254729470, "v": 5185316672, "kind": "sag"}, "geometry": {"type": "Point", "coordinates": [73.07436735625001, 33.6817516875]}}, {"type": "Feature", "properties": {"drop_m": 3, "sink_depth_m": 1, "highway": "primary", "name": null, "u": 256320691, "v": 1706958690, "kind": "sag"}, "geometry": {"type": "Point", "coordinates": [73.04072753999999, 33.726523773333334]}}, {"type": "Feature", "properties": {"drop_m": 3, "sink_depth_m": 1, "highway": "primary", "name": null, "u": 256320691, "v": 1706958690, "kind": "sag"}, "geometry": {"type": "Point", "coordinates": [73.04331166, 33.723103726666665]}}, {"type": "Feature", "properties": {"drop_m": 3, "sink_depth_m": 2, "highway": "trunk", "name": null, "u": 277832634, "v": 36204293, "kind": "sag"}, "geometry": {"type": "Point", "coordinates": [73.06238012857143, 33.69245742857142]}}, {"type": "Feature", "properties": {"drop_m": 3, "sink_depth_m": 2, "highway": "trunk", "name": null, "u": 277832634, "v": 36204293, "kind": "sag"}, "geometry": {"type": "Point", "coordinates": [73.06275141428571, 33.692655114285714]}}, {"type": "Feature", "properties": {"drop_m": 3, "sink_depth_m": 3, "highway": "primary", "name": null, "u": 371383570, "v": 5258340103, "kind": "sag"}, "geometry": {"type": "Point", "coordinates": [73.05256655000001, 33.70822893235294]}}, {"type": "Feature", "properties": {"drop_m": 3, "sink_depth_m": 0, "highway": "primary", "name": null, "u": 371383570, "v": 5258340103, "kind": "underpass"}, "geometry": {"type": "Point", "coordinates": [73.05403335, 33.70899385]}}, {"type": "Feature", "properties": {"drop_m": 3, "sink_depth_m": 0, "highway": "primary", "name": null, "u": 371383570, "v": 5258340103, "kind": "sag"}, "geometry": {"type": "Point", "coordinates": [73.0545834, 33.709280694117645]}}, {"type": "Feature", "properties": {"drop_m": 3, "sink_depth_m": 0, "highway": "primary", "name": null, "u": 371383570, "v": 5258340103, "kind": "sag"}, "geometry": {"type": "Point", "coordinates": [73.0549501, 33.709471923529414]}}, {"type": "Feature", "properties": {"drop_m": 3, "sink_depth_m": 0, "highway": "primary", "name": null, "u": 371383570, "v": 5258340103, "kind": "sag"}, "geometry": {"type": "Point", "coordinates": [73.0560502, 33.710045611764706]}}, {"type": "Feature", "properties": {"drop_m": 3, "sink_depth_m": 0, "highway": "primary", "name": null, "u": 371383577, "v": 1705523898, "kind": "sag"}, "geometry": {"type": "Point", "coordinates": [73.056523875, 33.70524535]}}, {"type": "Feature", "properties": {"drop_m": 3, "sink_depth_m": 3, "highway": "primary", "name": null, "u": 371383577, "v": 1705523898, "kind": "sag"}, "geometry": {"type": "Point", "coordinates": [73.05310779090908, 33.70979219090909]}}, {"type": "Feature", "properties": {"drop_m": 3, "sink_depth_m": 0, "highway": "primary", "name": null, "u": 1705464449, "v": 1705464450, "kind": "sag"}, "geometry": {"type": "Point", "coordinates": [73.05147401666666, 33.726173616666664]}}, {"type": "Feature", "properties": {"drop_m": 3, "sink_depth_m": 0, "highway": "secondary", "name": null, "u": 1711751043, "v": 1711751063, "kind": "underpass"}, "geometry": {"type": "Point", "coordinates": [73.04815765652174, 33.68587084347826]}}, {"type": "Feature", "properties": {"drop_m": 3, "sink_depth_m": 0, "highway": "secondary", "name": null, "u": 1711751043, "v": 1711751063, "kind": "underpass"}, "geometry": {"type": "Point", "coordinates": [73.0477898652174, 33.68567863478261]}}, {"type": "Feature", "properties": {"drop_m": 3, "sink_depth_m": 3, "highway": "primary", "name": null, "u": 1711751060, "v": 4503858002, "kind": "underpass"}, "geometry": {"type": "Point", "coordinates": [73.04804983636363, 33.68427099090909]}}, {"type": "Feature", "properties": {"drop_m": 3, "sink_depth_m": 0, "highway": "primary", "name": null, "u": 1711751060, "v": 4503858002, "kind": "sag"}, "geometry": {"type": "Point", "coordinates": [73.04969592, 33.68206192]}}, {"type": "Feature", "properties": {"drop_m": 3, "sink_depth_m": 0, "highway": "primary", "name": null, "u": 1711751068, "v": 4503858016, "kind": "underpass"}, "geometry": {"type": "Point", "coordinates": [73.04707008, 33.68497254]}}, {"type": "Feature", "properties": {"drop_m": 3, "sink_depth_m": 2, "highway": "primary", "name": null, "u": 1711772040, "v": 1711772064, "kind": "sag"}, "geometry": {"type": "Point", "coordinates": [73.05504695, 33.67444041666667]}}, {"type": "Feature", "properties": {"drop_m": 3, "sink_depth_m": 1, "highway": "secondary", "name": null, "u": 1712674861, "v": 10776224700, "kind": "sag"}, "geometry": {"type": "Point", "coordinates": [73.0587105125, 33.6792164]}}, {"type": "Feature", "properties": {"drop_m": 3, "sink_depth_m": 2, "highway": "primary", "name": null, "u": 1713173718, "v": 1713173791, "kind": "sag"}, "geometry": {"type": "Point", "coordinates": [73.06403884285714, 33.72789505714286]}}, {"type": "Feature", "properties": {"drop_m": 3, "sink_depth_m": 0, "highway": "secondary", "name": null, "u": 1714701699, "v": 6550727827, "kind": "underpass"}, "geometry": {"type": "Point", "coordinates": [73.07127775000001, 33.717717674999996]}}, {"type": "Feature", "properties": {"drop_m": 3, "sink_depth_m": 0, "highway": "primary", "name": null, "u": 1714712802, "v": 1714741612, "kind": "sag"}, "geometry": {"type": "Point", "coordinates": [73.0768223, 33.7110397]}}, {"type": "Feature", "properties": {"drop_m": 3, "sink_depth_m": 1, "highway": "primary", "name": null, "u": 1714741629, "v": 1714712748, "kind": "sag"}, "geometry": {"type": "Point", "coordinates": [73.07646639090909, 33.71130260909091]}}, {"type": "Feature", "properties": {"drop_m": 3, "sink_depth_m": 0, "highway": "primary", "name": null, "u": 1714760529, "v": 1714760584, "kind": "underpass"}, "geometry": {"type": "Point", "coordinates": [73.08288555, 33.702758]}}, {"type": "Feature", "properties": {"drop_m": 3, "sink_depth_m": 0, "highway": "secondary", "name": null, "u": 1718372871, "v": 10805675159, "kind": "sag"}, "geometry": {"type": "Point", "coordinates": [73.05999756923077, 33.710652469230766]}}, {"type": "Feature", "properties": {"drop_m": 3, "sink_depth_m": 0, "highway": "secondary", "name": null, "u": 1718372871, "v": 10805675159, "kind": "sag"}, "geometry": {"type": "Point", "coordinates": [73.06037810769232, 33.71085120769231]}}, {"type": "Feature", "properties": {"drop_m": 3, "sink_depth_m": 1, "highway": "secondary", "name": null, "u": 3302059790, "v": 13771791288, "kind": "sag"}, "geometry": {"type": "Point", "coordinates": [73.01315624285715, 33.69683847142857]}}, {"type": "Feature", "properties": {"drop_m": 3, "sink_depth_m": 1, "highway": "trunk", "name": null, "u": 4314988727, "v": 64943351, "kind": "sag"}, "geometry": {"type": "Point", "coordinates": [73.07433383200001, 33.68137658]}}, {"type": "Feature", "properties": {"drop_m": 3, "sink_depth_m": 1, "highway": "trunk", "name": null, "u": 4314988727, "v": 64943351, "kind": "sag"}, "geometry": {"type": "Point", "coordinates": [73.07386076, 33.6820109]}}, {"type": "Feature", "properties": {"drop_m": 3, "sink_depth_m": 2, "highway": "trunk", "name": null, "u": 4314988727, "v": 64943351, "kind": "sag"}, "geometry": {"type": "Point", "coordinates": [73.071850204, 33.684706760000005]}}, {"type": "Feature", "properties": {"drop_m": 3, "sink_depth_m": 3, "highway": "secondary", "name": null, "u": 4503783174, "v": 10774378076, "kind": "sag"}, "geometry": {"type": "Point", "coordinates": [73.05180637142857, 33.68791196428571]}}, {"type": "Feature", "properties": {"drop_m": 3, "sink_depth_m": 1, "highway": "secondary", "name": null, "u": 4503783175, "v": 4503802392, "kind": "sag"}, "geometry": {"type": "Point", "coordinates": [73.03442055000001, 33.678691199999996]}}, {"type": "Feature", "properties": {"drop_m": 3, "sink_depth_m": 0, "highway": "secondary", "name": null, "u": 4503802272, "v": 135586905, "kind": "sag"}, "geometry": {"type": "Point", "coordinates": [73.03482467500001, 33.679055525]}}, {"type": "Feature", "properties": {"drop_m": 3, "sink_depth_m": 0, "highway": "secondary", "name": null, "u": 4503809969, "v": 1711751044, "kind": "sag"}, "geometry": {"type": "Point", "coordinates": [73.04879546, 33.686359180000004]}}, {"type": "Feature", "properties": {"drop_m": 3, "sink_depth_m": 0, "highway": "trunk", "name": null, "u": 4503858001, "v": 5892714672, "kind": "sag"}, "geometry": {"type": "Point", "coordinates": [73.05408035384616, 33.68815555384616]}}, {"type": "Feature", "properties": {"drop_m": 3, "sink_depth_m": 3, "highway": "primary", "name": null, "u": 4503858026, "v": 1711751068, "kind": "sag"}, "geometry": {"type": "Point", "coordinates": [73.0486904, 33.6827945]}}, {"type": "Feature", "properties": {"drop_m": 3, "sink_depth_m": 0, "highway": "secondary", "name": null, "u": 4557839421, "v": 208987115, "kind": "sag"}, "geometry": {"type": "Point", "coordinates": [73.02408221428571, 33.683985628571435]}}, {"type": "Feature", "properties": {"drop_m": 3, "sink_depth_m": 0, "highway": "primary", "name": null, "u": 4954380790, "v": 10760202708, "kind": "sag"}, "geometry": {"type": "Point", "coordinates": [73.08032324999999, 33.722536500000004]}}, {"type": "Feature", "properties": {"drop_m": 3, "sink_depth_m": 0, "highway": "secondary", "name": null, "u": 4954775540, "v": 1718372860, "kind": "sag"}, "geometry": {"type": "Point", "coordinates": [73.07389822142858, 33.71791137857143]}}, {"type": "Feature", "properties": {"drop_m": 3, "sink_depth_m": 1, "highway": "trunk", "name": null, "u": 5185127799, "v": 4314988727, "kind": "sag"}, "geometry": {"type": "Point", "coordinates": [73.075632, 33.6796449]}}, {"type": "Feature", "properties": {"drop_m": 3, "sink_depth_m": 1, "highway": "secondary", "name": null, "u": 5185127810, "v": 5185154493, "kind": "underpass"}, "geometry": {"type": "Point", "coordinates": [73.0766712, 33.6789344]}}, {"type": "Feature", "properties": {"drop_m": 3, "sink_depth_m": 0, "highway": "trunk", "name": null, "u": 5347714312, "v": 11505876376, "kind": "sag"}, "geometry": {"type": "Point", "coordinates": [73.04464952727272, 33.68290279090909]}}, {"type": "Feature", "properties": {"drop_m": 3, "sink_depth_m": 0, "highway": "trunk", "name": null, "u": 5347714312, "v": 11505876376, "kind": "sag"}, "geometry": {"type": "Point", "coordinates": [73.04408920909091, 33.68259196363636]}}, {"type": "Feature", "properties": {"drop_m": 3, "sink_depth_m": 2, "highway": "primary", "name": null, "u": 5367679536, "v": 208872339, "kind": "sag"}, "geometry": {"type": "Point", "coordinates": [73.06057142857142, 33.7124772]}}, {"type": "Feature", "properties": {"drop_m": 3, "sink_depth_m": 0, "highway": "secondary", "name": null, "u": 6654495384, "v": 1718372847, "kind": "sag"}, "geometry": {"type": "Point", "coordinates": [73.06843545384616, 33.71493006923077]}}, {"type": "Feature", "properties": {"drop_m": 3, "sink_depth_m": 0, "highway": "secondary", "name": null, "u": 6654495384, "v": 1718372847, "kind": "sag"}, "geometry": {"type": "Point", "coordinates": [73.06787454, 33.71464066]}}, {"type": "Feature", "properties": {"drop_m": 3, "sink_depth_m": 4, "highway": "primary", "name": null, "u": 6859793881, "v": 6654476109, "kind": "sag"}, "geometry": {"type": "Point", "coordinates": [73.06399859999999, 33.71396237142857]}}, {"type": "Feature", "properties": {"drop_m": 3, "sink_depth_m": 0, "highway": "secondary", "name": null, "u": 6868653589, "v": 13663768519, "kind": "sag"}, "geometry": {"type": "Point", "coordinates": [73.0721298, 33.69842035]}}, {"type": "Feature", "properties": {"drop_m": 3, "sink_depth_m": 1, "highway": "secondary", "name": null, "u": 6876905790, "v": 189233288, "kind": "sag"}, "geometry": {"type": "Point", "coordinates": [73.0255281, 33.6921399]}}, {"type": "Feature", "properties": {"drop_m": 3, "sink_depth_m": 1, "highway": "trunk", "name": null, "u": 6877071493, "v": 6877071491, "kind": "sag"}, "geometry": {"type": "Point", "coordinates": [73.080784325, 33.67314955]}}, {"type": "Feature", "properties": {"drop_m": 3, "sink_depth_m": 0, "highway": "secondary", "name": null, "u": 6880768907, "v": 197969375, "kind": "sag"}, "geometry": {"type": "Point", "coordinates": [73.03921326315789, 33.70291215789474]}}, {"type": "Feature", "properties": {"drop_m": 3, "sink_depth_m": 0, "highway": "primary", "name": null, "u": 7523074266, "v": 10234684692, "kind": "sag"}, "geometry": {"type": "Point", "coordinates": [73.06103640625, 33.699151924999995]}}, {"type": "Feature", "properties": {"drop_m": 3, "sink_depth_m": 0, "highway": "secondary", "name": null, "u": 7523322822, "v": 6668028446, "kind": "sag"}, "geometry": {"type": "Point", "coordinates": [73.07992276666667, 33.7210461]}}, {"type": "Feature", "properties": {"drop_m": 3, "sink_depth_m": 0, "highway": "secondary", "name": null, "u": 7592301907, "v": 189236482, "kind": "sag"}, "geometry": {"type": "Point", "coordinates": [73.0455818, 33.702634]}}, {"type": "Feature", "properties": {"drop_m": 3, "sink_depth_m": 0, "highway": "secondary", "name": null, "u": 9094691931, "v": 3302059790, "kind": "sag"}, "geometry": {"type": "Point", "coordinates": [73.012006875, 33.698370475]}}, {"type": "Feature", "properties": {"drop_m": 3, "sink_depth_m": 0, "highway": "secondary", "name": null, "u": 9108779904, "v": 197972168, "kind": "sag"}, "geometry": {"type": "Point", "coordinates": [73.0459711, 33.7064532]}}, {"type": "Feature", "properties": {"drop_m": 3, "sink_depth_m": 2, "highway": "secondary", "name": null, "u": 9108779906, "v": 9108779904, "kind": "sag"}, "geometry": {"type": "Point", "coordinates": [73.04768329999999, 33.70735275]}}, {"type": "Feature", "properties": {"drop_m": 3, "sink_depth_m": 0, "highway": "primary", "name": null, "u": 9111624567, "v": 2351617941, "kind": "sag"}, "geometry": {"type": "Point", "coordinates": [73.07669782, 33.72090268]}}, {"type": "Feature", "properties": {"drop_m": 3, "sink_depth_m": 0, "highway": "primary", "name": null, "u": 9111624567, "v": 2351617941, "kind": "sag"}, "geometry": {"type": "Point", "coordinates": [73.07822386470589, 33.72171342352941]}}, {"type": "Feature", "properties": {"drop_m": 3, "sink_depth_m": 0, "highway": "primary", "name": null, "u": 9111624567, "v": 2351617941, "kind": "sag"}, "geometry": {"type": "Point", "coordinates": [73.07986890588235, 33.72257572941176]}}, {"type": "Feature", "properties": {"drop_m": 3, "sink_depth_m": 0, "highway": "secondary", "name": null, "u": 9307109745, "v": 1718372871, "kind": "sag"}, "geometry": {"type": "Point", "coordinates": [73.0579384, 33.7095313]}}, {"type": "Feature", "properties": {"drop_m": 3, "sink_depth_m": 0, "highway": "secondary", "name": null, "u": 9307109745, "v": 1718372871, "kind": "sag"}, "geometry": {"type": "Point", "coordinates": [73.05829766666666, 33.7097344]}}, {"type": "Feature", "properties": {"drop_m": 3, "sink_depth_m": 1, "highway": "trunk", "name": null, "u": 9608056582, "v": 4503802396, "kind": "sag"}, "geometry": {"type": "Point", "coordinates": [73.03024798387096, 33.67564386774193]}}, {"type": "Feature", "properties": {"drop_m": 3, "sink_depth_m": 1, "highway": "trunk", "name": null, "u": 10207915476, "v": 242084826, "kind": "sag"}, "geometry": {"type": "Point", "coordinates": [73.0716096, 33.697058]}}, {"type": "Feature", "properties": {"drop_m": 3, "sink_depth_m": 1, "highway": "trunk", "name": null, "u": 10207915476, "v": 242084826, "kind": "sag"}, "geometry": {"type": "Point", "coordinates": [73.0705254625, 33.696487749999996]}}, {"type": "Feature", "properties": {"drop_m": 3, "sink_depth_m": 0, "highway": "primary", "name": null, "u": 10760202708, "v": 1718362959, "kind": "sag"}, "geometry": {"type": "Point", "coordinates": [73.07784968749999, 33.7212407375]}}, {"type": "Feature", "properties": {"drop_m": 3, "sink_depth_m": 0, "highway": "primary", "name": null, "u": 10760202708, "v": 1718362959, "kind": "sag"}, "geometry": {"type": "Point", "coordinates": [73.07654736666666, 33.7205585]}}, {"type": "Feature", "properties": {"drop_m": 3, "sink_depth_m": 1, "highway": "primary", "name": null, "u": 10776728548, "v": 13530421123, "kind": "sag"}, "geometry": {"type": "Point", "coordinates": [73.03794725555557, 33.69756155555555]}}, {"type": "Feature", "properties": {"drop_m": 3, "sink_depth_m": 0, "highway": "trunk", "name": null, "u": 11505876376, "v": 9608056570, "kind": "sag"}, "geometry": {"type": "Point", "coordinates": [73.03612864, 33.67840092]}}, {"type": "Feature", "properties": {"drop_m": 3, "sink_depth_m": 3, "highway": "trunk", "name": null, "u": 11505876376, "v": 9608056570, "kind": "sag"}, "geometry": {"type": "Point", "coordinates": [73.03128062222223, 33.67587695555556]}}, {"type": "Feature", "properties": {"drop_m": 3, "sink_depth_m": 0, "highway": "primary", "name": null, "u": 12956905822, "v": 10782490042, "kind": "sag"}, "geometry": {"type": "Point", "coordinates": [73.03515424999999, 33.698898650000004]}}, {"type": "Feature", "properties": {"drop_m": 3, "sink_depth_m": 2, "highway": "primary", "name": null, "u": 13007320984, "v": 12956905841, "kind": "sag"}, "geometry": {"type": "Point", "coordinates": [73.02876156470589, 33.6957471117647]}}, {"type": "Feature", "properties": {"drop_m": 3, "sink_depth_m": 0, "highway": "primary", "name": null, "u": 13596781674, "v": 13596781653, "kind": "sag"}, "geometry": {"type": "Point", "coordinates": [73.0272378, 33.7134185]}}, {"type": "Feature", "properties": {"drop_m": 3, "sink_depth_m": 1, "highway": "secondary", "name": null, "u": 13771791288, "v": 11200587939, "kind": "sag"}, "geometry": {"type": "Point", "coordinates": [73.0143251, 33.6952804]}}, {"type": "Feature", "properties": {"drop_m": 3, "sink_depth_m": 1, "highway": "secondary", "name": null, "u": 13771791288, "v": 11200587939, "kind": "sag"}, "geometry": {"type": "Point", "coordinates": [73.01457308333333, 33.69495478333333]}}, {"type": "Feature", "properties": {"drop_m": 2, "sink_depth_m": 1, "highway": "primary", "name": null, "u": 53094758, "v": 1714741617, "kind": "sag"}, "geometry": {"type": "Point", "coordinates": [73.08085230666667, 33.70544554]}}, {"type": "Feature", "properties": {"drop_m": 2, "sink_depth_m": 0, "highway": "secondary", "name": null, "u": 53094953, "v": 245437194, "kind": "sag"}, "geometry": {"type": "Point", "coordinates": [73.05152708, 33.70562188]}}, {"type": "Feature", "properties": {"drop_m": 2, "sink_depth_m": 0, "highway": "secondary", "name": null, "u": 53094953, "v": 245437194, "kind": "sag"}, "geometry": {"type": "Point", "coordinates": [73.04887566, 33.70422372]}}, {"type": "Feature", "properties": {"drop_m": 2, "sink_depth_m": 0, "highway": "secondary", "name": null, "u": 53094953, "v": 245437194, "kind": "sag"}, "geometry": {"type": "Point", "coordinates": [73.0485025, 33.704028066666666]}}, {"type": "Feature", "properties": {"drop_m": 2, "sink_depth_m": 0, "highway": "secondary", "name": null, "u": 53094953, "v": 245437194, "kind": "sag"}, "geometry": {"type": "Point", "coordinates": [73.04700985999999, 33.70324545333334]}}, {"type": "Feature", "properties": {"drop_m": 2, "sink_depth_m": 0, "highway": "secondary", "name": null, "u": 59634791, "v": 10773958124, "kind": "sag"}, "geometry": {"type": "Point", "coordinates": [73.0705892, 33.68399053333333]}}, {"type": "Feature", "properties": {"drop_m": 2, "sink_depth_m": 1, "highway": "secondary", "name": null, "u": 59634791, "v": 10773958124, "kind": "sag"}, "geometry": {"type": "Point", "coordinates": [73.0723625, 33.6816008]}}, {"type": "Feature", "properties": {"drop_m": 2, "sink_depth_m": 0, "highway": "secondary", "name": null, "u": 61990126, "v": 4503802272, "kind": "sag"}, "geometry": {"type": "Point", "coordinates": [73.0315675, 33.6773519]}}, {"type": "Feature", "properties": {"drop_m": 2, "sink_depth_m": 0, "highway": "secondary", "name": null, "u": 75739274, "v": 5375266538, "kind": "sag"}, "geometry": {"type": "Point", "coordinates": [73.07717960000001, 33.683284799999996]}}, {"type": "Feature", "properties": {"drop_m": 2, "sink_depth_m": 0, "highway": "secondary", "name": null, "u": 75739274, "v": 5375266538, "kind": "sag"}, "geometry": {"type": "Point", "coordinates": [73.0754674, 33.6871648]}}, {"type": "Feature", "properties": {"drop_m": 2, "sink_depth_m": 0, "highway": "secondary", "name": null, "u": 75739274, "v": 5375266538, "kind": "sag"}, "geometry": {"type": "Point", "coordinates": [73.0736464, 33.6879375]}}, {"type": "Feature", "properties": {"drop_m": 2, "sink_depth_m": 0, "highway": "primary", "name": null, "u": 80300477, "v": 87282921, "kind": "sag"}, "geometry": {"type": "Point", "coordinates": [73.04687664666666, 33.70500754666667]}}, {"type": "Feature", "properties": {"drop_m": 2, "sink_depth_m": 0, "highway": "primary", "name": null, "u": 80300477, "v": 87282921, "kind": "sag"}, "geometry": {"type": "Point", "coordinates": [73.04466035789474, 33.70385314210527]}}, {"type": "Feature", "properties": {"drop_m": 2, "sink_depth_m": 1, "highway": "secondary", "name": null, "u": 87283148, "v": 240255992, "kind": "sag"}, "geometry": {"type": "Point", "coordinates": [73.04165908888889, 33.7043242]}}, {"type": "Feature", "properties": {"drop_m": 2, "sink_depth_m": 1, "highway": "primary", "name": null, "u": 122280556, "v": 224545743, "kind": "sag"}, "geometry": {"type": "Point", "coordinates": [73.02782404999999, 33.7108196375]}}, {"type": "Feature", "properties": {"drop_m": 2, "sink_depth_m": 0, "highway": "primary", "name": null, "u": 180140149, "v": 219124219, "kind": "sag"}, "geometry": {"type": "Point", "coordinates": [73.0189357, 33.69055955]}}, {"type": "Feature", "properties": {"drop_m": 2, "sink_depth_m": 3, "highway": "secondary", "name": null, "u": 180142835, "v": 11200587940, "kind": "sag"}, "geometry": {"type": "Point", "coordinates": [73.0165725, 33.69210075]}}, {"type": "Feature", "properties": {"drop_m": 2, "sink_depth_m": 2, "highway": "secondary", "name": null, "u": 180155843, "v": 6876905790, "kind": "sag"}, "geometry": {"type": "Point", "coordinates": [73.0191106, 33.6890062]}}, {"type": "Feature", "properties": {"drop_m": 2, "sink_depth_m": 2, "highway": "secondary", "name": null, "u": 180155843, "v": 6876905790, "kind": "sag"}, "geometry": {"type": "Point", "coordinates": [73.02014603750001, 33.689327425]}}, {"type": "Feature", "properties": {"drop_m": 2, "sink_depth_m": 0, "highway": "secondary", "name": null, "u": 180158326, "v": 7111080659, "kind": "sag"}, "geometry": {"type": "Point", "coordinates": [73.02425785, 33.6820542875]}}, {"type": "Feature", "properties": {"drop_m": 2, "sink_depth_m": 0, "highway": "secondary", "name": null, "u": 180556707, "v": 12498984196, "kind": "sag"}, "geometry": {"type": "Point", "coordinates": [73.0616825, 33.6940226]}}, {"type": "Feature", "properties": {"drop_m": 2, "sink_depth_m": 0, "highway": "secondary", "name": null, "u": 180556707, "v": 12498984196, "kind": "sag"}, "geometry": {"type": "Point", "coordinates": [73.06214059999999, 33.6955156]}}, {"type": "Feature", "properties": {"drop_m": 2, "sink_depth_m": 0, "highway": "secondary", "name": null, "u": 180556707, "v": 12498984196, "kind": "sag"}, "geometry": {"type": "Point", "coordinates": [73.0622471, 33.6959144]}}, {"type": "Feature", "properties": {"drop_m": 2, "sink_depth_m": 0, "highway": "secondary", "name": null, "u": 189134028, "v": 240078760, "kind": "sag"}, "geometry": {"type": "Point", "coordinates": [73.034682975, 33.683798875]}}, {"type": "Feature", "properties": {"drop_m": 2, "sink_depth_m": 0, "highway": "secondary", "name": null, "u": 189134028, "v": 240078760, "kind": "sag"}, "geometry": {"type": "Point", "coordinates": [73.03578984999999, 33.68234339999999]}}, {"type": "Feature", "properties": {"drop_m": 2, "sink_depth_m": 0, "highway": "secondary", "name": null, "u": 189134028, "v": 240078760, "kind": "sag"}, "geometry": {"type": "Point", "coordinates": [73.0360674, 33.6819983]}}, {"type": "Feature", "properties": {"drop_m": 2, "sink_depth_m": 0, "highway": "secondary", "name": null, "u": 189136096, "v": 248482735, "kind": "sag"}, "geometry": {"type": "Point", "coordinates": [73.0289194, 33.6937582]}}, {"type": "Feature", "properties": {"drop_m": 2, "sink_depth_m": 2, "highway": "secondary", "name": null, "u": 189138584, "v": 247716816, "kind": "sag"}, "geometry": {"type": "Point", "coordinates": [73.0353964, 33.68788065]}}, {"type": "Feature", "properties": {"drop_m": 2, "sink_depth_m": 0, "highway": "secondary", "name": null, "u": 189138584, "v": 247716816, "kind": "sag"}, "geometry": {"type": "Point", "coordinates": [73.0358299, 33.6871736]}}, {"type": "Feature", "properties": {"drop_m": 2, "sink_depth_m": 1, "highway": "secondary", "name": null, "u": 189224579, "v": 243859135, "kind": "sag"}, "geometry": {"type": "Point", "coordinates": [73.01115363333334, 33.68460799333333]}}, {"type": "Feature", "properties": {"drop_m": 2, "sink_depth_m": 0, "highway": "secondary", "name": null, "u": 189224579, "v": 243859135, "kind": "sag"}, "geometry": {"type": "Point", "coordinates": [73.01171893333333, 33.684911873333334]}}, {"type": "Feature", "properties": {"drop_m": 2, "sink_depth_m": 0, "highway": "secondary", "name": null, "u": 189224579, "v": 243859135, "kind": "sag"}, "geometry": {"type": "Point", "coordinates": [73.01228423333333, 33.68521575333333]}}, {"type": "Feature", "properties": {"drop_m": 2, "sink_depth_m": 0, "highway": "secondary", "name": null, "u": 189233358, "v": 13016189623, "kind": "sag"}, "geometry": {"type": "Point", "coordinates": [73.03319908181818, 33.69615459090909]}}, {"type": "Feature", "properties": {"drop_m": 2, "sink_depth_m": 8, "highway": "primary", "name": null, "u": 208872339, "v": 245431120, "kind": "sag"}, "geometry": {"type": "Point", "coordinates": [73.06325340000001, 33.713880399999994]}}, {"type": "Feature", "properties": {"drop_m": 2, "sink_depth_m": 0, "highway": "primary", "name": null, "u": 219124219, "v": 13007320999, "kind": "sag"}, "geometry": {"type": "Point", "coordinates": [73.02016581666668, 33.69124993333333]}}, {"type": "Feature", "properties": {"drop_m": 2, "sink_depth_m": 0, "highway": "primary", "name": null, "u": 239833704, "v": 1705424335, "kind": "sag"}, "geometry": {"type": "Point", "coordinates": [73.03365828695652, 33.71672111304348]}}, {"type": "Feature", "properties": {"drop_m": 2, "sink_depth_m": 0, "highway": "primary", "name": null, "u": 239833704, "v": 1705424335, "kind": "sag"}, "geometry": {"type": "Point", "coordinates": [73.03328214782609, 33.716524652173916]}}, {"type": "Feature", "properties": {"drop_m": 2, "sink_depth_m": 0, "highway": "primary", "name": null, "u": 243067054, "v": 208633465, "kind": "sag"}, "geometry": {"type": "Point", "coordinates": [73.06900790833333, 33.72147615]}}, {"type": "Feature", "properties": {"drop_m": 2, "sink_depth_m": 0, "highway": "primary", "name": null, "u": 243067054, "v": 208633465, "kind": "sag"}, "geometry": {"type": "Point", "coordinates": [73.06925642499999, 33.72114845]}}, {"type": "Feature", "properties": {"drop_m": 2, "sink_depth_m": 1, "highway": "primary", "name": null, "u": 243067054, "v": 208633465, "kind": "sag"}, "geometry": {"type": "Point", "coordinates": [73.07293015, 33.71615795]}}, {"type": "Feature", "properties": {"drop_m": 2, "sink_depth_m": 2, "highway": "secondary", "name": null, "u": 243859135, "v": 2803760971, "kind": "sag"}, "geometry": {"type": "Point", "coordinates": [73.0187572, 33.6886826]}}, {"type": "Feature", "properties": {"drop_m": 2, "sink_depth_m": 1, "highway": "secondary", "name": null, "u": 244393270, "v": 4557839421, "kind": "sag"}, "geometry": {"type": "Point", "coordinates": [73.0217487, 33.68537896]}}, {"type": "Feature", "properties": {"drop_m": 2, "sink_depth_m": 0, "highway": "secondary", "name": null, "u": 244523273, "v": 244393270, "kind": "sag"}, "geometry": {"type": "Point", "coordinates": [73.02075806, 33.68669352]}}, {"type": "Feature", "properties": {"drop_m": 2, "sink_depth_m": 0, "highway": "primary", "name": null, "u": 245415771, "v": 180171172, "kind": "sag"}, "geometry": {"type": "Point", "coordinates": [73.05998423999999, 33.730632879999995]}}, {"type": "Feature", "properties": {"drop_m": 2, "sink_depth_m": 0, "highway": "primary", "name": null, "u": 245426691, "v": 245943430, "kind": "sag"}, "geometry": {"type": "Point", "coordinates": [73.04160579500001, 33.720888065]}}, {"type": "Feature", "properties": {"drop_m": 2, "sink_depth_m": 2, "highway": "primary", "name": null, "u": 245426691, "v": 245943430, "kind": "sag"}, "geometry": {"type": "Point", "coordinates": [73.04032028, 33.720214559999995]}}, {"type": "Feature", "properties": {"drop_m": 2, "sink_depth_m": 0, "highway": "primary", "name": null, "u": 245431120, "v": 7523310593, "kind": "sag"}, "geometry": {"type": "Point", "coordinates": [73.0675594, 33.7161059]}}, {"type": "Feature", "properties": {"drop_m": 2, "sink_depth_m": 0, "highway": "primary", "name": null, "u": 245431120, "v": 7523310593, "kind": "sag"}, "geometry": {"type": "Point", "coordinates": [73.0689883, 33.71686085]}}, {"type": "Feature", "properties": {"drop_m": 2, "sink_depth_m": 0, "highway": "secondary", "name": null, "u": 245431124, "v": 247048516, "kind": "sag"}, "geometry": {"type": "Point", "coordinates": [73.06474155000001, 33.71645134375]}}, {"type": "Feature", "properties": {"drop_m": 2, "sink_depth_m": 0, "highway": "secondary", "name": null, "u": 245431124, "v": 247048516, "kind": "sag"}, "geometry": {"type": "Point", "coordinates": [73.06511005, 33.71664858125]}}, {"type": "Feature", "properties": {"drop_m": 2, "sink_depth_m": 0, "highway": "secondary", "name": null, "u": 247920034, "v": 5375266521, "kind": "sag"}, "geometry": {"type": "Point", "coordinates": [73.072727, 33.6923586]}}, {"type": "Feature", "properties": {"drop_m": 2, "sink_depth_m": 0, "highway": "secondary", "name": null, "u": 247920034, "v": 5375266521, "kind": "sag"}, "geometry": {"type": "Point", "coordinates": [73.0713462, 33.6892659]}}, {"type": "Feature", "properties": {"drop_m": 2, "sink_depth_m": 0, "highway": "secondary", "name": null, "u": 247920034, "v": 5375266521, "kind": "sag"}, "geometry": {"type": "Point", "coordinates": [73.0711819, 33.6885058]}}, {"type": "Feature", "properties": {"drop_m": 2, "sink_depth_m": 0, "highway": "trunk", "name": null, "u": 247921970, "v": 10207915467, "kind": "sag"}, "geometry": {"type": "Point", "coordinates": [73.07192152631579, 33.697424568421056]}}, {"type": "Feature", "properties": {"drop_m": 2, "sink_depth_m": 0, "highway": "trunk", "name": null, "u": 247921970, "v": 10207915467, "kind": "sag"}, "geometry": {"type": "Point", "coordinates": [73.0741949, 33.6986332]}}, {"type": "Feature", "properties": {"drop_m": 2, "sink_depth_m": 0, "highway": "trunk", "name": null, "u": 247921970, "v": 10207915467, "kind": "sag"}, "geometry": {"type": "Point", "coordinates": [73.07589712857143, 33.699515885714284]}}, {"type": "Feature", "properties": {"drop_m": 2, "sink_depth_m": 0, "highway": "trunk", "name": null, "u": 247921970, "v": 10207915467, "kind": "sag"}, "geometry": {"type": "Point", "coordinates": [73.0781286, 33.7007088]}}, {"type": "Feature", "properties": {"drop_m": 2, "sink_depth_m": 0, "highway": "secondary", "name": null, "u": 248481127, "v": 248482109, "kind": "sag"}, "geometry": {"type": "Point", "coordinates": [73.01069935, 33.6747139]}}, {"type": "Feature", "properties": {"drop_m": 2, "sink_depth_m": 0, "highway": "secondary", "name": null, "u": 248566354, "v": 59634801, "kind": "sag"}, "geometry": {"type": "Point", "coordinates": [73.0708253, 33.683409850000004]}}, {"type": "Feature", "properties": {"drop_m": 2, "sink_depth_m": 0, "highway": "secondary", "name": null, "u": 248566506, "v": 59634791, "kind": "sag"}, "geometry": {"type": "Point", "coordinates": [73.0687286, 33.6840378]}}, {"type": "Feature", "properties": {"drop_m": 2, "sink_depth_m": 0, "highway": "secondary", "name": null, "u": 248568553, "v": 248566506, "kind": "sag"}, "geometry": {"type": "Point", "coordinates": [73.0677179, 33.6831766]}}, {"type": "Feature", "properties": {"drop_m": 2, "sink_depth_m": 0, "highway": "secondary", "name": null, "u": 248568802, "v": 83705648, "kind": "sag"}, "geometry": {"type": "Point", "coordinates": [73.067421, 33.6828315]}}, {"type": "Feature", "properties": {"drop_m": 2, "sink_depth_m": 0, "highway": "secondary", "name": null, "u": 248570785, "v": 248569148, "kind": "sag"}, "geometry": {"type": "Point", "coordinates": [73.06284366, 33.68154962]}}, {"type": "Feature", "properties": {"drop_m": 2, "sink_depth_m": 1, "highway": "secondary", "name": null, "u": 248570785, "v": 248569148, "kind": "sag"}, "geometry": {"type": "Point", "coordinates": [73.0639395, 33.6821285]}}, {"type": "Feature", "properties": {"drop_m": 2, "sink_depth_m": 0, "highway": "primary", "name": null, "u": 250162883, "v": 250163814, "kind": "sag"}, "geometry": {"type": "Point", "coordinates": [73.0432175, 33.6902517]}}, {"type": "Feature", "properties": {"drop_m": 2, "sink_depth_m": 0, "highway": "primary", "name": null, "u": 250162883, "v": 250163814, "kind": "sag"}, "geometry": {"type": "Point", "coordinates": [73.04159238, 33.692419879999996]}}, {"type": "Feature", "properties": {"drop_m": 2, "sink_depth_m": 1, "highway": "primary", "name": null, "u": 250163814, "v": 1711718366, "kind": "sag"}, "geometry": {"type": "Point", "coordinates": [73.03984009999999, 33.69478635]}}, {"type": "Feature", "properties": {"drop_m": 2, "sink_depth_m": 1, "highway": "secondary", "name": null, "u": 250888680, "v": 252606468, "kind": "sag"}, "geometry": {"type": "Point", "coordinates": [73.0667438, 33.6961774]}}, {"type": "Feature", "properties": {"drop_m": 2, "sink_depth_m": 0, "highway": "primary", "name": null, "u": 250888680, "v": 2134897574, "kind": "sag"}, "geometry": {"type": "Point", "coordinates": [73.06389253333334, 33.69566767777778]}}, {"type": "Feature", "properties": {"drop_m": 2, "sink_depth_m": 0, "highway": "primary", "name": null, "u": 252112020, "v": 371383570, "kind": "underpass"}, "geometry": {"type": "Point", "coordinates": [73.04524531578947, 33.70443674736842]}}, {"type": "Feature", "properties": {"drop_m": 2, "sink_depth_m": 0, "highway": "trunk", "name": null, "u": 254729454, "v": 1425904986, "kind": "sag"}, "geometry": {"type": "Point", "coordinates": [73.0669681909091, 33.69462549090909]}}, {"type": "Feature", "properties": {"drop_m": 2, "sink_depth_m": 2, "highway": "trunk", "name": null, "u": 254729470, "v": 5185316672, "kind": "sag"}, "geometry": {"type": "Point", "coordinates": [73.0687996, 33.6892175]}}, {"type": "Feature", "properties": {"drop_m": 2, "sink_depth_m": 0, "highway": "trunk", "name": null, "u": 254729470, "v": 5185316672, "kind": "sag"}, "geometry": {"type": "Point", "coordinates": [73.07064340769232, 33.68671413076923]}}, {"type": "Feature", "properties": {"drop_m": 2, "sink_depth_m": 1, "highway": "secondary", "name": null, "u": 255702565, "v": 6473588166, "kind": "sag"}, "geometry": {"type": "Point", "coordinates": [73.05345694, 33.67543764]}}, {"type": "Feature", "properties": {"drop_m": 2, "sink_depth_m": 1, "highway": "primary", "name": null, "u": 256318712, "v": 13527297968, "kind": "sag"}, "geometry": {"type": "Point", "coordinates": [73.01271622, 33.70566752]}}, {"type": "Feature", "properties": {"drop_m": 2, "sink_depth_m": 1, "highway": "primary", "name": null, "u": 256318712, "v": 13527297968, "kind": "sag"}, "geometry": {"type": "Point", "coordinates": [73.0123129, 33.7054536]}}, {"type": "Feature", "properties": {"drop_m": 2, "sink_depth_m": 1, "highway": "primary", "name": null, "u": 256320630, "v": 169381730, "kind": "sag"}, "geometry": {"type": "Point", "coordinates": [73.0400796, 33.727129033333334]}}, {"type": "Feature", "properties": {"drop_m": 2, "sink_depth_m": 1, "highway": "primary", "name": null, "u": 305774948, "v": 305775016, "kind": "sag"}, "geometry": {"type": "Point", "coordinates": [73.0521007, 33.6790062]}}, {"type": "Feature", "properties": {"drop_m": 2, "sink_depth_m": 2, "highway": "primary", "name": null, "u": 371383570, "v": 5258340103, "kind": "sag"}, "geometry": {"type": "Point", "coordinates": [73.05219985000001, 33.708037702941176]}}, {"type": "Feature", "properties": {"drop_m": 2, "sink_depth_m": 0, "highway": "primary", "name": null, "u": 371383570, "v": 5258340103, "kind": "underpass"}, "geometry": {"type": "Point", "coordinates": [73.05348330000001, 33.70870700588235]}}, {"type": "Feature", "properties": {"drop_m": 2, "sink_depth_m": 0, "highway": "primary", "name": null, "u": 371383570, "v": 5258340103, "kind": "sag"}, "geometry": {"type": "Point", "coordinates": [73.0556835, 33.70985438235294]}}, {"type": "Feature", "properties": {"drop_m": 2, "sink_depth_m": 0, "highway": "primary", "name": null, "u": 371383570, "v": 5258340103, "kind": "sag"}, "geometry": {"type": "Point", "coordinates": [73.0564169, 33.71023684117647]}}, {"type": "Feature", "properties": {"drop_m": 2, "sink_depth_m": 0, "highway": "primary", "name": null, "u": 371383577, "v": 1705523898, "kind": "sag"}, "geometry": {"type": "Point", "coordinates": [73.05675479642856, 33.70493799285714]}}, {"type": "Feature", "properties": {"drop_m": 2, "sink_depth_m": 0, "highway": "primary", "name": null, "u": 371383577, "v": 1705523898, "kind": "sag"}, "geometry": {"type": "Point", "coordinates": [73.054907425, 33.70739685]}}, {"type": "Feature", "properties": {"drop_m": 2, "sink_depth_m": 0, "highway": "primary", "name": null, "u": 371383577, "v": 1705523898, "kind": "sag"}, "geometry": {"type": "Point", "coordinates": [73.05467650357143, 33.70770420714286]}}, {"type": "Feature", "properties": {"drop_m": 2, "sink_depth_m": 1, "highway": "primary", "name": null, "u": 1425904968, "v": 1425904983, "kind": "sag"}, "geometry": {"type": "Point", "coordinates": [73.064268, 33.6947452]}}, {"type": "Feature", "properties": {"drop_m": 2, "sink_depth_m": 2, "highway": "trunk", "name": null, "u": 1425915152, "v": 5347714312, "kind": "sag"}, "geometry": {"type": "Point", "coordinates": [73.0576528, 33.6897806]}}, {"type": "Feature", "properties": {"drop_m": 2, "sink_depth_m": 0, "highway": "primary", "name": null, "u": 1705424362, "v": 1706953717, "kind": "sag"}, "geometry": {"type": "Point", "coordinates": [73.03394136363636, 33.71700905454545]}}, {"type": "Feature", "properties": {"drop_m": 2, "sink_depth_m": 1, "highway": "primary", "name": null, "u": 1705523893, "v": 80300477, "kind": "sag"}, "geometry": {"type": "Point", "coordinates": [73.05542716060606, 33.709491345454545]}}, {"type": "Feature", "properties": {"drop_m": 2, "sink_depth_m": 0, "highway": "primary", "name": null, "u": 1705523893, "v": 80300477, "kind": "sag"}, "geometry": {"type": "Point", "coordinates": [73.0506375, 33.70695915]}}, {"type": "Feature", "properties": {"drop_m": 2, "sink_depth_m": 0, "highway": "primary", "name": null, "u": 1705523899, "v": 1706939459, "kind": "sag"}, "geometry": {"type": "Point", "coordinates": [73.05153312857144, 33.71235909285714]}}, {"type": "Feature", "properties": {"drop_m": 2, "sink_depth_m": 0, "highway": "primary", "name": null, "u": 1705523899, "v": 1706939459, "kind": "sag"}, "geometry": {"type": "Point", "coordinates": [73.05176638571429, 33.71205367857143]}}, {"type": "Feature", "properties": {"drop_m": 2, "sink_depth_m": 0, "highway": "primary", "name": null, "u": 1705523899, "v": 1706882936, "kind": "sag"}, "geometry": {"type": "Point", "coordinates": [73.05643535, 33.70561058214286]}}, {"type": "Feature", "properties": {"drop_m": 2, "sink_depth_m": 0, "highway": "primary", "name": null, "u": 1706958662, "v": 256320630, "kind": "sag"}, "geometry": {"type": "Point", "coordinates": [73.04338287931034, 33.72269201724138]}}, {"type": "Feature", "properties": {"drop_m": 2, "sink_depth_m": 0, "highway": "primary", "name": null, "u": 1706958662, "v": 256320630, "kind": "sag"}, "geometry": {"type": "Point", "coordinates": [73.04091936206896, 33.72600074827586]}}, {"type": "Feature", "properties": {"drop_m": 2, "sink_depth_m": 1, "highway": "primary", "name": null, "u": 1706958699, "v": 7045567836, "kind": "sag"}, "geometry": {"type": "Point", "coordinates": [73.04543399696969, 33.72029111212122]}}, {"type": "Feature", "properties": {"drop_m": 2, "sink_depth_m": 1, "highway": "primary", "name": null, "u": 1706958699, "v": 7045567836, "kind": "sag"}, "geometry": {"type": "Point", "coordinates": [73.04671626363637, 33.718576445454545]}}, {"type": "Feature", "properties": {"drop_m": 2, "sink_depth_m": 1, "highway": "primary", "name": null, "u": 1711718366, "v": 13530421128, "kind": "sag"}, "geometry": {"type": "Point", "coordinates": [73.03935196666667, 33.6954256]}}, {"type": "Feature", "properties": {"drop_m": 2, "sink_depth_m": 0, "highway": "secondary", "name": null, "u": 1711751043, "v": 1711751063, "kind": "sag"}, "geometry": {"type": "Point", "coordinates": [73.05036440434783, 33.68702409565218]}}, {"type": "Feature", "properties": {"drop_m": 2, "sink_depth_m": 0, "highway": "primary", "name": null, "u": 1711751060, "v": 4503858002, "kind": "underpass"}, "geometry": {"type": "Point", "coordinates": [73.0473343090909, 33.68528237272727]}}, {"type": "Feature", "properties": {"drop_m": 2, "sink_depth_m": 1, "highway": "primary", "name": null, "u": 1711772040, "v": 1711772064, "kind": "sag"}, "geometry": {"type": "Point", "coordinates": [73.05482345, 33.674763049999996]}}, {"type": "Feature", "properties": {"drop_m": 2, "sink_depth_m": 0, "highway": "secondary", "name": null, "u": 1711772059, "v": 6473588163, "kind": "sag"}, "geometry": {"type": "Point", "coordinates": [73.05518112857143, 33.6733712]}}, {"type": "Feature", "properties": {"drop_m": 2, "sink_depth_m": 0, "highway": "primary", "name": null, "u": 1711772064, "v": 1711756520, "kind": "sag"}, "geometry": {"type": "Point", "coordinates": [73.0538612375, 33.676056100000004]}}, {"type": "Feature", "properties": {"drop_m": 2, "sink_depth_m": 0, "highway": "secondary", "name": null, "u": 1711772071, "v": 256132231, "kind": "sag"}, "geometry": {"type": "Point", "coordinates": [73.05439314, 33.674405119999996]}}, {"type": "Feature", "properties": {"drop_m": 2, "sink_depth_m": 0, "highway": "primary", "name": null, "u": 1713142017, "v": 371383577, "kind": "sag"}, "geometry": {"type": "Point", "coordinates": [73.05873844999999, 33.7022812]}}, {"type": "Feature", "properties": {"drop_m": 2, "sink_depth_m": 0, "highway": "primary", "name": null, "u": 1713142017, "v": 371383577, "kind": "sag"}, "geometry": {"type": "Point", "coordinates": [73.05848160000001, 33.7026248]}}, {"type": "Feature", "properties": {"drop_m": 2, "sink_depth_m": 1, "highway": "primary", "name": null, "u": 1713173694, "v": 1713173621, "kind": "sag"}, "geometry": {"type": "Point", "coordinates": [73.06387952857142, 33.728288785714284]}}, {"type": "Feature", "properties": {"drop_m": 2, "sink_depth_m": 3, "highway": "primary", "name": null, "u": 1714560194, "v": 1714701660, "kind": "sag"}, "geometry": {"type": "Point", "coordinates": [73.073885355, 33.714679225]}}, {"type": "Feature", "properties": {"drop_m": 2, "sink_depth_m": 0, "highway": "primary", "name": null, "u": 1714701660, "v": 1713173778, "kind": "sag"}, "geometry": {"type": "Point", "coordinates": [73.067851125, 33.722733825]}}, {"type": "Feature", "properties": {"drop_m": 2, "sink_depth_m": 0, "highway": "secondary", "name": null, "u": 1714701699, "v": 6550727827, "kind": "underpass"}, "geometry": {"type": "Point", "coordinates": [73.07151495, 33.71739685]}}, {"type": "Feature", "properties": {"drop_m": 2, "sink_depth_m": 2, "highway": "secondary", "name": null, "u": 1714701731, "v": 208633465, "kind": "sag"}, "geometry": {"type": "Point", "coordinates": [73.073759225, 33.71523985]}}, {"type": "Feature", "properties": {"drop_m": 2, "sink_depth_m": 0, "highway": "primary", "name": null, "u": 1714712802, "v": 1714741612, "kind": "sag"}, "geometry": {"type": "Point", "coordinates": [73.0760927, 33.71197499090909]}}, {"type": "Feature", "properties": {"drop_m": 2, "sink_depth_m": 1, "highway": "primary", "name": null, "u": 1714712802, "v": 1714741612, "kind": "underpass"}, "geometry": {"type": "Point", "coordinates": [73.07719118, 33.71055928]}}, {"type": "Feature", "properties": {"drop_m": 2, "sink_depth_m": 2, "highway": "primary", "name": null, "u": 1718343845, "v": 13976398554, "kind": "sag"}, "geometry": {"type": "Point", "coordinates": [73.04060851999999, 33.7205039]}}, {"type": "Feature", "properties": {"drop_m": 2, "sink_depth_m": 0, "highway": "primary", "name": null, "u": 1718362959, "v": 7523310610, "kind": "sag"}, "geometry": {"type": "Point", "coordinates": [73.07258822, 33.71847722]}}, {"type": "Feature", "properties": {"drop_m": 2, "sink_depth_m": 0, "highway": "secondary", "name": null, "u": 1718372848, "v": 10805675158, "kind": "sag"}, "geometry": {"type": "Point", "coordinates": [73.0644255, 33.7128302]}}, {"type": "Feature", "properties": {"drop_m": 2, "sink_depth_m": 0, "highway": "secondary", "name": null, "u": 1718372848, "v": 10805675158, "kind": "sag"}, "geometry": {"type": "Point", "coordinates": [73.06341084285714, 33.71230091428571]}}, {"type": "Feature", "properties": {"drop_m": 2, "sink_depth_m": 0, "highway": "trunk", "name": null, "u": 1720966193, "v": 247921970, "kind": "sag"}, "geometry": {"type": "Point", "coordinates": [73.06653555714286, 33.6946067]}}, {"type": "Feature", "properties": {"drop_m": 2, "sink_depth_m": 1, "highway": "trunk", "name": null, "u": 2134897574, "v": 2481136921, "kind": "sag"}, "geometry": {"type": "Point", "coordinates": [73.06489945, 33.69430315]}}, {"type": "Feature", "properties": {"drop_m": 2, "sink_depth_m": 0, "highway": "primary", "name": null, "u": 2351617565, "v": 10782490040, "kind": "sag"}, "geometry": {"type": "Point", "coordinates": [73.0179709, 33.70858513333333]}}, {"type": "Feature", "properties": {"drop_m": 2, "sink_depth_m": 0, "highway": "primary", "name": null, "u": 2351617565, "v": 10782490040, "kind": "sag"}, "geometry": {"type": "Point", "coordinates": [73.01837416666667, 33.708796022222224]}}, {"type": "Feature", "properties": {"drop_m": 2, "sink_depth_m": 0, "highway": "trunk", "name": null, "u": 2481136921, "v": 254729470, "kind": "sag"}, "geometry": {"type": "Point", "coordinates": [73.06579657272727, 33.693167427272726]}}, {"type": "Feature", "properties": {"drop_m": 2, "sink_depth_m": 2, "highway": "trunk", "name": null, "u": 2481136921, "v": 254729470, "kind": "sag"}, "geometry": {"type": "Point", "coordinates": [73.06690782727273, 33.691705172727275]}}, {"type": "Feature", "properties": {"drop_m": 2, "sink_depth_m": 0, "highway": "trunk", "name": null, "u": 4314988727, "v": 64943351, "kind": "sag"}, "geometry": {"type": "Point", "coordinates": [73.07267808, 33.6835967]}}, {"type": "Feature", "properties": {"drop_m": 2, "sink_depth_m": 0, "highway": "trunk", "name": null, "u": 4314988727, "v": 64943351, "kind": "sag"}, "geometry": {"type": "Point", "coordinates": [73.072441544, 33.683913860000004]}}, {"type": "Feature", "properties": {"drop_m": 2, "sink_depth_m": 0, "highway": "trunk", "name": null, "u": 4314988727, "v": 64943351, "kind": "sag"}, "geometry": {"type": "Point", "coordinates": [73.0706657, 33.68630376666667]}}, {"type": "Feature", "properties": {"drop_m": 2, "sink_depth_m": 0, "highway": "trunk", "name": null, "u": 4314988727, "v": 64943351, "kind": "sag"}, "geometry": {"type": "Point", "coordinates": [73.07019158571428, 33.68694449047619]}}, {"type": "Feature", "properties": {"drop_m": 2, "sink_depth_m": 2, "highway": "trunk", "name": null, "u": 4315001842, "v": 5185316671, "kind": "sag"}, "geometry": {"type": "Point", "coordinates": [73.07764166666666, 33.6773993]}}, {"type": "Feature", "properties": {"drop_m": 2, "sink_depth_m": 0, "highway": "secondary", "name": null, "u": 4503783174, "v": 10774378076, "kind": "sag"}, "geometry": {"type": "Point", "coordinates": [73.05271622857143, 33.68839778571429]}}, {"type": "Feature", "properties": {"drop_m": 2, "sink_depth_m": 0, "highway": "secondary", "name": null, "u": 4503783174, "v": 10774378076, "kind": "sag"}, "geometry": {"type": "Point", "coordinates": [73.05380805714285, 33.68898077142857]}}, {"type": "Feature", "properties": {"drop_m": 2, "sink_depth_m": 0, "highway": "secondary", "name": null, "u": 4503783175, "v": 4503802392, "kind": "sag"}, "geometry": {"type": "Point", "coordinates": [73.03404257, 33.67849792]}}, {"type": "Feature", "properties": {"drop_m": 2, "sink_depth_m": 0, "highway": "trunk", "name": null, "u": 4503802284, "v": 4503858007, "kind": "sag"}, "geometry": {"type": "Point", "coordinates": [73.03911404, 33.680300880000004]}}, {"type": "Feature", "properties": {"drop_m": 2, "sink_depth_m": 1, "highway": "secondary", "name": null, "u": 4503802392, "v": 4503783201, "kind": "sag"}, "geometry": {"type": "Point", "coordinates": [73.02905304615383, 33.67589590769231]}}, {"type": "Feature", "properties": {"drop_m": 2, "sink_depth_m": 0, "highway": "secondary", "name": null, "u": 4503802392, "v": 4503783201, "kind": "sag"}, "geometry": {"type": "Point", "coordinates": [73.0280916, 33.675392699999996]}}, {"type": "Feature", "properties": {"drop_m": 2, "sink_depth_m": 0, "highway": "secondary", "name": null, "u": 4503809969, "v": 1711751044, "kind": "sag"}, "geometry": {"type": "Point", "coordinates": [73.04842728, 33.68616664]}}, {"type": "Feature", "properties": {"drop_m": 2, "sink_depth_m": 0, "highway": "trunk", "name": null, "u": 4503858001, "v": 5892714672, "kind": "sag"}, "geometry": {"type": "Point", "coordinates": [73.05465063076923, 33.688433930769236]}}, {"type": "Feature", "properties": {"drop_m": 2, "sink_depth_m": 0, "highway": "trunk", "name": null, "u": 4503858001, "v": 5892714672, "kind": "sag"}, "geometry": {"type": "Point", "coordinates": [73.05617609090909, 33.68920819090909]}}, {"type": "Feature", "properties": {"drop_m": 2, "sink_depth_m": 0, "highway": "trunk", "name": null, "u": 4503858001, "v": 5892714672, "kind": "sag"}, "geometry": {"type": "Point", "coordinates": [73.05713245454545, 33.68971205454545]}}, {"type": "Feature", "properties": {"drop_m": 2, "sink_depth_m": 0, "highway": "trunk", "name": null, "u": 4503858001, "v": 5892714672, "kind": "sag"}, "geometry": {"type": "Point", "coordinates": [73.05882450555555, 33.69059753888889]}}, {"type": "Feature", "properties": {"drop_m": 2, "sink_depth_m": 1, "highway": "trunk", "name": null, "u": 4503858001, "v": 5892714672, "kind": "sag"}, "geometry": {"type": "Point", "coordinates": [73.05994693888888, 33.691183772222224]}}, {"type": "Feature", "properties": {"drop_m": 2, "sink_depth_m": 0, "highway": "primary", "name": null, "u": 4503858002, "v": 305774948, "kind": "sag"}, "geometry": {"type": "Point", "coordinates": [73.05066366363637, 33.68091994545455]}}, {"type": "Feature", "properties": {"drop_m": 2, "sink_depth_m": 0, "highway": "trunk", "name": null, "u": 4503858007, "v": 4503900114, "kind": "sag"}, "geometry": {"type": "Point", "coordinates": [73.041887075, 33.681785925]}}, {"type": "Feature", "properties": {"drop_m": 2, "sink_depth_m": 0, "highway": "trunk", "name": null, "u": 4503858007, "v": 4503900114, "kind": "sag"}, "geometry": {"type": "Point", "coordinates": [73.04225825833333, 33.681974141666664]}}, {"type": "Feature", "properties": {"drop_m": 2, "sink_depth_m": 1, "highway": "primary", "name": null, "u": 4503858026, "v": 1711751068, "kind": "sag"}, "geometry": {"type": "Point", "coordinates": [73.04831906, 33.68328806]}}, {"type": "Feature", "properties": {"drop_m": 2, "sink_depth_m": 0, "highway": "secondary", "name": null, "u": 4954775540, "v": 1718372860, "kind": "sag"}, "geometry": {"type": "Point", "coordinates": [73.07353149285714, 33.71771690714286]}}, {"type": "Feature", "properties": {"drop_m": 2, "sink_depth_m": 0, "highway": "secondary", "name": null, "u": 4954775540, "v": 1718372860, "kind": "sag"}, "geometry": {"type": "Point", "coordinates": [73.07426495, 33.71810585]}}, {"type": "Feature", "properties": {"drop_m": 2, "sink_depth_m": 0, "highway": "secondary", "name": null, "u": 5185127811, "v": 5162305890, "kind": "sag"}, "geometry": {"type": "Point", "coordinates": [73.074375, 33.6789685]}}, {"type": "Feature", "properties": {"drop_m": 2, "sink_depth_m": 0, "highway": "trunk", "name": null, "u": 5347714312, "v": 11505876376, "kind": "sag"}, "geometry": {"type": "Point", "coordinates": [73.04995951000001, 33.68571162]}}, {"type": "Feature", "properties": {"drop_m": 2, "sink_depth_m": 0, "highway": "secondary", "name": null, "u": 5366075801, "v": 5365734432, "kind": "sag"}, "geometry": {"type": "Point", "coordinates": [73.01380935, 33.695774]}}, {"type": "Feature", "properties": {"drop_m": 2, "sink_depth_m": 0, "highway": "primary", "name": null, "u": 5367679536, "v": 208872339, "kind": "sag"}, "geometry": {"type": "Point", "coordinates": [73.0623796875, 33.7134241375]}}, {"type": "Feature", "properties": {"drop_m": 2, "sink_depth_m": 0, "highway": "secondary", "name": null, "u": 6338488377, "v": 10774378075, "kind": "sag"}, "geometry": {"type": "Point", "coordinates": [73.055264075, 33.6896081625]}}, {"type": "Feature", "properties": {"drop_m": 2, "sink_depth_m": 0, "highway": "secondary", "name": null, "u": 6338488377, "v": 10774378075, "kind": "sag"}, "geometry": {"type": "Point", "coordinates": [73.05465515, 33.689293424999995]}}, {"type": "Feature", "properties": {"drop_m": 2, "sink_depth_m": 0, "highway": "secondary", "name": null, "u": 6654495384, "v": 1718372847, "kind": "sag"}, "geometry": {"type": "Point", "coordinates": [73.06729446, 33.714339339999995]}}, {"type": "Feature", "properties": {"drop_m": 2, "sink_depth_m": 0, "highway": "secondary", "name": null, "u": 6868653589, "v": 13663768519, "kind": "sag"}, "geometry": {"type": "Point", "coordinates": [73.07250117142857, 33.69861767857143]}}, {"type": "Feature", "properties": {"drop_m": 2, "sink_depth_m": 0, "highway": "secondary", "name": null, "u": 6876905790, "v": 189233288, "kind": "sag"}, "geometry": {"type": "Point", "coordinates": [73.0259344, 33.692353925]}}, {"type": "Feature", "properties": {"drop_m": 2, "sink_depth_m": 0, "highway": "secondary", "name": null, "u": 6880768907, "v": 197969375, "kind": "sag"}, "geometry": {"type": "Point", "coordinates": [73.03810152631578, 33.70232251578947]}}, {"type": "Feature", "properties": {"drop_m": 2, "sink_depth_m": 0, "highway": "primary", "name": null, "u": 7523074266, "v": 10234684692, "kind": "underpass"}, "geometry": {"type": "Point", "coordinates": [73.06057113125, 33.699787225]}}, {"type": "Feature", "properties": {"drop_m": 2, "sink_depth_m": 0, "highway": "primary", "name": null, "u": 7523074266, "v": 10234684692, "kind": "sag"}, "geometry": {"type": "Point", "coordinates": [73.06022217499999, 33.7002637]}}, {"type": "Feature", "properties": {"drop_m": 2, "sink_depth_m": 2, "highway": "primary", "name": null, "u": 7523310610, "v": 6859793881, "kind": "sag"}, "geometry": {"type": "Point", "coordinates": [73.0649162, 33.7144409]}}, {"type": "Feature", "properties": {"drop_m": 2, "sink_depth_m": 0, "highway": "secondary", "name": null, "u": 7592301907, "v": 189236482, "kind": "sag"}, "geometry": {"type": "Point", "coordinates": [73.0452167, 33.702440114285714]}}, {"type": "Feature", "properties": {"drop_m": 2, "sink_depth_m": 0, "highway": "secondary", "name": null, "u": 9094691931, "v": 3302059790, "kind": "sag"}, "geometry": {"type": "Point", "coordinates": [73.01101915, 33.69966875]}}, {"type": "Feature", "properties": {"drop_m": 2, "sink_depth_m": 3, "highway": "secondary", "name": null, "u": 9111624553, "v": 9111624555, "kind": "sag"}, "geometry": {"type": "Point", "coordinates": [73.0787874, 33.7277975]}}, {"type": "Feature", "properties": {"drop_m": 2, "sink_depth_m": 0, "highway": "primary", "name": null, "u": 9111624567, "v": 2351617941, "kind": "sag"}, "geometry": {"type": "Point", "coordinates": [73.07573075333333, 33.72038674666667]}}, {"type": "Feature", "properties": {"drop_m": 2, "sink_depth_m": 0, "highway": "secondary", "name": null, "u": 9307109745, "v": 1718372871, "kind": "sag"}, "geometry": {"type": "Point", "coordinates": [73.05883656666667, 33.710039050000006]}}, {"type": "Feature", "properties": {"drop_m": 2, "sink_depth_m": 0, "highway": "trunk", "name": null, "u": 9608056582, "v": 4503802396, "kind": "sag"}, "geometry": {"type": "Point", "coordinates": [73.02856700714285, 33.674761842857144]}}, {"type": "Feature", "properties": {"drop_m": 2, "sink_depth_m": 1, "highway": "trunk", "name": null, "u": 9608056582, "v": 4503802396, "kind": "sag"}, "geometry": {"type": "Point", "coordinates": [73.03137886774194, 33.67623283548387]}}, {"type": "Feature", "properties": {"drop_m": 2, "sink_depth_m": 0, "highway": "trunk", "name": null, "u": 9608056582, "v": 4503802396, "kind": "sag"}, "geometry": {"type": "Point", "coordinates": [73.03194430967741, 33.67652731935484]}}, {"type": "Feature", "properties": {"drop_m": 2, "sink_depth_m": 0, "highway": "trunk", "name": null, "u": 9608056582, "v": 4503802396, "kind": "sag"}, "geometry": {"type": "Point", "coordinates": [73.03307519354838, 33.67711628709677]}}, {"type": "Feature", "properties": {"drop_m": 2, "sink_depth_m": 0, "highway": "trunk", "name": null, "u": 9608056582, "v": 4503802396, "kind": "sag"}, "geometry": {"type": "Point", "coordinates": [73.03345215483871, 33.677312609677415]}}, {"type": "Feature", "properties": {"drop_m": 2, "sink_depth_m": 0, "highway": "trunk", "name": null, "u": 9608056582, "v": 4503802396, "kind": "sag"}, "geometry": {"type": "Point", "coordinates": [73.03667163636364, 33.678995772727276]}}, {"type": "Feature", "properties": {"drop_m": 2, "sink_depth_m": 0, "highway": "trunk", "name": null, "u": 9608056585, "v": 9608056582, "kind": "sag"}, "geometry": {"type": "Point", "coordinates": [73.02281286666667, 33.67179933333333]}}, {"type": "Feature", "properties": {"drop_m": 2, "sink_depth_m": 0, "highway": "trunk", "name": null, "u": 10207915464, "v": 1714760575, "kind": "sag"}, "geometry": {"type": "Point", "coordinates": [73.08125319999999, 33.70207015]}}, {"type": "Feature", "properties": {"drop_m": 2, "sink_depth_m": 0, "highway": "trunk", "name": null, "u": 10207915476, "v": 242084826, "kind": "sag"}, "geometry": {"type": "Point", "coordinates": [73.07689036666666, 33.699807066666665]}}, {"type": "Feature", "properties": {"drop_m": 2, "sink_depth_m": 0, "highway": "trunk", "name": null, "u": 10207915476, "v": 242084826, "kind": "sag"}, "geometry": {"type": "Point", "coordinates": [73.06992145000001, 33.6961747]}}, {"type": "Feature", "properties": {"drop_m": 2, "sink_depth_m": 0, "highway": "primary", "name": null, "u": 10210328673, "v": 12389549631, "kind": "sag"}, "geometry": {"type": "Point", "coordinates": [73.05958255, 33.70142]}}, {"type": "Feature", "properties": {"drop_m": 2, "sink_depth_m": 0, "highway": "primary", "name": null, "u": 10210328673, "v": 12389549631, "kind": "sag"}, "geometry": {"type": "Point", "coordinates": [73.0598277, 33.7010922]}}, {"type": "Feature", "properties": {"drop_m": 2, "sink_depth_m": 1, "highway": "secondary", "name": null, "u": 10759914682, "v": 3127333911, "kind": "sag"}, "geometry": {"type": "Point", "coordinates": [73.07781224, 33.70138302]}}, {"type": "Feature", "properties": {"drop_m": 2, "sink_depth_m": 1, "highway": "secondary", "name": null, "u": 10759914682, "v": 3127333911, "kind": "sag"}, "geometry": {"type": "Point", "coordinates": [73.07742142000001, 33.70118366]}}, {"type": "Feature", "properties": {"drop_m": 2, "sink_depth_m": 0, "highway": "primary", "name": null, "u": 10760202708, "v": 1718362959, "kind": "sag"}, "geometry": {"type": "Point", "coordinates": [73.07729155, 33.72094835]}}, {"type": "Feature", "properties": {"drop_m": 2, "sink_depth_m": 0, "highway": "primary", "name": null, "u": 10760202708, "v": 1718362959, "kind": "sag"}, "geometry": {"type": "Point", "coordinates": [73.07543109166666, 33.719973725]}}, {"type": "Feature", "properties": {"drop_m": 2, "sink_depth_m": 0, "highway": "primary", "name": null, "u": 10760202708, "v": 1718362959, "kind": "sag"}, "geometry": {"type": "Point", "coordinates": [73.075059, 33.7197788]}}, {"type": "Feature", "properties": {"drop_m": 2, "sink_depth_m": 0, "highway": "secondary", "name": null, "u": 10774378074, "v": 5082115973, "kind": "sag"}, "geometry": {"type": "Point", "coordinates": [73.04577474, 33.684794159999996]}}, {"type": "Feature", "properties": {"drop_m": 2, "sink_depth_m": 1, "highway": "secondary", "name": null, "u": 10776224700, "v": 243532577, "kind": "sag"}, "geometry": {"type": "Point", "coordinates": [73.05658925, 33.67811745]}}, {"type": "Feature", "properties": {"drop_m": 2, "sink_depth_m": 0, "highway": "secondary", "name": null, "u": 10776224701, "v": 13978610967, "kind": "sag"}, "geometry": {"type": "Point", "coordinates": [73.05825245454545, 33.6791639]}}, {"type": "Feature", "properties": {"drop_m": 2, "sink_depth_m": 0, "highway": "primary", "name": null, "u": 10776728563, "v": 12956905802, "kind": "sag"}, "geometry": {"type": "Point", "coordinates": [73.0358833, 33.70031696666666]}}, {"type": "Feature", "properties": {"drop_m": 2, "sink_depth_m": 2, "highway": "primary", "name": null, "u": 10782490040, "v": 1716116711, "kind": "sag"}, "geometry": {"type": "Point", "coordinates": [73.0205385, 33.7099278]}}, {"type": "Feature", "properties": {"drop_m": 2, "sink_depth_m": 2, "highway": "primary", "name": null, "u": 10782490042, "v": 13007342206, "kind": "sag"}, "geometry": {"type": "Point", "coordinates": [73.032587675, 33.697544275]}}, {"type": "Feature", "properties": {"drop_m": 2, "sink_depth_m": 0, "highway": "primary", "name": null, "u": 10782490042, "v": 13007342206, "kind": "sag"}, "geometry": {"type": "Point", "coordinates": [73.0303195, 33.69636903333333]}}, {"type": "Feature", "properties": {"drop_m": 2, "sink_depth_m": 0, "highway": "primary", "name": null, "u": 10782490042, "v": 13007342206, "kind": "sag"}, "geometry": {"type": "Point", "coordinates": [73.02577618571429, 33.693989214285715]}}, {"type": "Feature", "properties": {"drop_m": 2, "sink_depth_m": 2, "highway": "trunk", "name": null, "u": 11505876376, "v": 9608056570, "kind": "sag"}, "geometry": {"type": "Point", "coordinates": [73.03295878222222, 33.67675063555556]}}, {"type": "Feature", "properties": {"drop_m": 2, "sink_depth_m": 2, "highway": "trunk", "name": null, "u": 11505876376, "v": 9608056570, "kind": "sag"}, "geometry": {"type": "Point", "coordinates": [73.03239939555556, 33.67645940888889]}}, {"type": "Feature", "properties": {"drop_m": 2, "sink_depth_m": 2, "highway": "trunk", "name": null, "u": 11505876376, "v": 9608056570, "kind": "sag"}, "geometry": {"type": "Point", "coordinates": [73.03184000888889, 33.67616818222223]}}, {"type": "Feature", "properties": {"drop_m": 2, "sink_depth_m": 2, "highway": "trunk", "name": null, "u": 11505876376, "v": 9608056570, "kind": "sag"}, "geometry": {"type": "Point", "coordinates": [73.02904988571429, 33.674710942857146]}}, {"type": "Feature", "properties": {"drop_m": 2, "sink_depth_m": 1, "highway": "primary", "name": null, "u": 11931393555, "v": 13007342232, "kind": "sag"}, "geometry": {"type": "Point", "coordinates": [73.02210465, 33.6920351]}}, {"type": "Feature", "properties": {"drop_m": 2, "sink_depth_m": 0, "highway": "primary", "name": null, "u": 12956905814, "v": 12956905822, "kind": "sag"}, "geometry": {"type": "Point", "coordinates": [73.040116775, 33.701458]}}, {"type": "Feature", "properties": {"drop_m": 2, "sink_depth_m": 0, "highway": "primary", "name": null, "u": 12956905814, "v": 12956905822, "kind": "sag"}, "geometry": {"type": "Point", "coordinates": [73.03974152500001, 33.7012622]}}, {"type": "Feature", "properties": {"drop_m": 2, "sink_depth_m": 0, "highway": "primary", "name": null, "u": 12956905863, "v": 122277600, "kind": "sag"}, "geometry": {"type": "Point", "coordinates": [73.03063263636363, 33.70701926363636]}}, {"type": "Feature", "properties": {"drop_m": 2, "sink_depth_m": 0, "highway": "primary", "name": null, "u": 12956905863, "v": 122277600, "kind": "sag"}, "geometry": {"type": "Point", "coordinates": [73.02968729999999, 33.70828818]}}, {"type": "Feature", "properties": {"drop_m": 2, "sink_depth_m": 0, "highway": "primary", "name": null, "u": 13007342232, "v": 180139319, "kind": "sag"}, "geometry": {"type": "Point", "coordinates": [73.018498, 33.6900876]}}, {"type": "Feature", "properties": {"drop_m": 2, "sink_depth_m": 0, "highway": "primary", "name": null, "u": 13596781674, "v": 13596781653, "kind": "sag"}, "geometry": {"type": "Point", "coordinates": [73.02779493749999, 33.713709200000004]}}, {"type": "Feature", "properties": {"drop_m": 2, "sink_depth_m": 0, "highway": "primary", "name": null, "u": 13596781674, "v": 13596781653, "kind": "underpass"}, "geometry": {"type": "Point", "coordinates": [73.0268318, 33.7131955]}}, {"type": "Feature", "properties": {"drop_m": 2, "sink_depth_m": 0, "highway": "primary", "name": null, "u": 13596781674, "v": 13596781653, "kind": "sag"}, "geometry": {"type": "Point", "coordinates": [73.02499393333333, 33.712215400000005]}}, {"type": "Feature", "properties": {"drop_m": 2, "sink_depth_m": 0, "highway": "primary", "name": null, "u": 13596781674, "v": 13596781653, "kind": "sag"}, "geometry": {"type": "Point", "coordinates": [73.02462356666668, 33.712018]}}, {"type": "Feature", "properties": {"drop_m": 2, "sink_depth_m": 0, "highway": "primary", "name": null, "u": 13596787517, "v": 13596781624, "kind": "sag"}, "geometry": {"type": "Point", "coordinates": [73.02550181333334, 33.712594599999996]}}, {"type": "Feature", "properties": {"drop_m": 2, "sink_depth_m": 0, "highway": "secondary", "name": null, "u": 13771791288, "v": 11200587939, "kind": "sag"}, "geometry": {"type": "Point", "coordinates": [73.01483125, 33.694617949999994]}}]}